{"type": "FeatureCollection", "name": "aou_registry", "properties": {"formula_ref": "SCIENCE_LOCKS_v0.4_phase1_2.md\u00a72", "aou_not_official_farm": true, "count": 9, "last_updated": "2026-09-09T04:46:34.831811+00:00"}, "features": [{"type": "Feature", "geometry": {"type": "Polygon", "coordinates": [[[53.70234795493869, 18.054307093365658], [53.70241699983863, 18.058821333333018], [53.7071363777756, 18.058755222593653], [53.70706721265756, 18.054241000258138], [53.70234795493869, 18.054307093365658]]]}, "properties": {"aou_id": "AOU-NJ-000001", "previous_ids": [], "first_seen_date": "2026-09-06", "last_seen_date": "2026-09-06", "active": true, "agricultural_probability": 61.73, "ag_class": "likely", "area_ha_est": 25.106, "ndvi": 0.5868, "ndmi": 0.1688, "ndre": null, "ndre_available": false, "ndre_status": "unavailable", "member_count": 1, "geometry_kind": "aou_segment", "aou_not_official_farm": true, "formula_ref": "SCIENCE_LOCKS_v0.4_phase1_2.md\u00a71-2", "date": "2026-09-06"}}, {"type": "Feature", "geometry": {"type": "Polygon", "coordinates": [[[53.73629245197536, 18.11252534848183], [53.73636260450939, 18.117039433556084], [53.74108340578815, 18.11697228554525], [53.74115369950671, 18.121486350385673], [53.745874600951055, 18.12141906906858], [53.74580418654105, 18.116905022117656], [53.74573379269212, 18.11239097278996], [53.741013132595455, 18.112458218328936], [53.7409428799262, 18.107944148737268], [53.73622231992956, 18.108011261033113], [53.73629245197536, 18.11252534848183]]]}, "properties": {"aou_id": "AOU-NJ-000002", "previous_ids": [], "first_seen_date": "2026-09-06", "last_seen_date": "2026-09-06", "active": true, "agricultural_probability": 58.21, "ag_class": "possible", "area_ha_est": 100.416, "ndvi": 0.5572, "ndmi": 0.1489, "ndre": null, "ndre_available": false, "ndre_status": "unavailable", "member_count": 4, "geometry_kind": "aou_segment", "aou_not_official_farm": true, "formula_ref": "SCIENCE_LOCKS_v0.4_phase1_2.md\u00a71-2", "date": "2026-09-06"}}, {"type": "Feature", "geometry": {"type": "Polygon", "coordinates": [[[53.741646330465564, 18.153084737698844], [53.74636807773636, 18.15301733113047], [53.746297519330454, 18.14850330083195], [53.746226981502716, 18.1439892681529], [53.741505476072795, 18.144056638930774], [53.741575892997716, 18.148570689504627], [53.741646330465564, 18.153084737698844]]]}, "properties": {"aou_id": "AOU-NJ-000003", "previous_ids": [], "first_seen_date": "2026-09-06", "last_seen_date": "2026-09-06", "active": true, "agricultural_probability": 64.58, "ag_class": "likely", "area_ha_est": 50.208, "ndvi": 0.5997, "ndmi": 0.1977, "ndre": null, "ndre_available": false, "ndre_status": "unavailable", "member_count": 2, "geometry_kind": "aou_segment", "aou_not_official_farm": true, "formula_ref": "SCIENCE_LOCKS_v0.4_phase1_2.md\u00a71-2", "date": "2026-09-06"}}, {"type": "Feature", "geometry": {"type": "Polygon", "coordinates": [[[53.90953014024016, 18.02420957194014], [53.90960434191477, 18.028723021502117], [53.91432207555026, 18.028651965263133], [53.91424775397743, 18.02413853467612], [53.90953014024016, 18.02420957194014]]]}, "properties": {"aou_id": "AOU-NJ-000004", "previous_ids": [], "first_seen_date": "2026-09-06", "last_seen_date": "2026-09-06", "active": true, "agricultural_probability": 52.65, "ag_class": "possible", "area_ha_est": 25.098, "ndvi": 0.5199, "ndmi": 0.1063, "ndre": null, "ndre_available": false, "ndre_status": "unavailable", "member_count": 1, "geometry_kind": "aou_segment", "aou_not_official_farm": true, "formula_ref": "SCIENCE_LOCKS_v0.4_phase1_2.md\u00a71-2", "date": "2026-09-06"}}, {"type": "Feature", "geometry": {"type": "Polygon", "coordinates": [[[53.85306263630894, 18.034080417448422], [53.85778074852047, 18.034010719791073], [53.85770784453678, 18.029497065914345], [53.8529898522891, 18.029566744963418], [53.85306263630894, 18.034080417448422]]]}, "properties": {"aou_id": "AOU-NJ-000005", "previous_ids": [], "first_seen_date": "2026-09-06", "last_seen_date": "2026-09-06", "active": true, "agricultural_probability": 46.22, "ag_class": "possible", "area_ha_est": 25.1, "ndvi": 0.5103, "ndmi": 0.0184, "ndre": null, "ndre_available": false, "ndre_status": "unavailable", "member_count": 1, "geometry_kind": "aou_segment", "aou_not_official_farm": true, "formula_ref": "SCIENCE_LOCKS_v0.4_phase1_2.md\u00a71-2", "date": "2026-09-06"}}, {"type": "Feature", "geometry": {"type": "Polygon", "coordinates": [[[53.83418997456093, 18.034358059942015], [53.834262299885104, 18.03887180416965], [53.83898061719617, 18.038802547284526], [53.84369891328476, 18.038733175550654], [53.84362634794508, 18.03421946832691], [53.83890817186298, 18.034288821543516], [53.83418997456093, 18.034358059942015]]]}, "properties": {"aou_id": "AOU-NJ-000006", "previous_ids": [], "first_seen_date": "2026-09-06", "last_seen_date": "2026-09-06", "active": true, "agricultural_probability": 48.56, "ag_class": "possible", "area_ha_est": 50.201, "ndvi": 0.4816, "ndmi": 0.0876, "ndre": null, "ndre_available": false, "ndre_status": "unavailable", "member_count": 2, "geometry_kind": "aou_segment", "aou_not_official_farm": true, "formula_ref": "SCIENCE_LOCKS_v0.4_phase1_2.md\u00a71-2", "date": "2026-09-06"}}, {"type": "Feature", "geometry": {"type": "Polygon", "coordinates": [[[53.87230159818977, 18.05636889143253], [53.87702022504436, 18.056298640884748], [53.87694673370069, 18.051785073714488], [53.872228226975444, 18.051855305526846], [53.87230159818977, 18.05636889143253]]]}, "properties": {"aou_id": "AOU-NJ-000007", "previous_ids": [], "first_seen_date": "2026-09-06", "last_seen_date": "2026-09-06", "active": true, "agricultural_probability": 64.8, "ag_class": "likely", "area_ha_est": 25.099, "ndvi": 0.6518, "ndmi": 0.141, "ndre": null, "ndre_available": false, "ndre_status": "unavailable", "member_count": 1, "geometry_kind": "aou_segment", "aou_not_official_farm": true, "formula_ref": "SCIENCE_LOCKS_v0.4_phase1_2.md\u00a71-2", "date": "2026-09-06"}}, {"type": "Feature", "geometry": {"type": "Polygon", "coordinates": [[[53.75059548183187, 18.12135167230624], [53.75531634211395, 18.121284160100853], [53.755245686328365, 18.11677014902098], [53.75052494673285, 18.1168376432755], [53.75059548183187, 18.12135167230624]]]}, "properties": {"aou_id": "AOU-NJ-000008", "previous_ids": [], "first_seen_date": "2026-09-06", "last_seen_date": "2026-09-06", "active": true, "agricultural_probability": 65.47, "ag_class": "likely", "area_ha_est": 25.104, "ndvi": 0.6392, "ndmi": 0.1658, "ndre": null, "ndre_available": false, "ndre_status": "unavailable", "member_count": 1, "geometry_kind": "aou_segment", "aou_not_official_farm": true, "formula_ref": "SCIENCE_LOCKS_v0.4_phase1_2.md\u00a71-2", "date": "2026-09-06"}}, {"type": "Feature", "geometry": {"type": "Polygon", "coordinates": [[[53.79823404307884, 18.147754394380154], [53.802955420147825, 18.147685618301168], [53.802883431678026, 18.143171802753592], [53.79816217548228, 18.143240560569513], [53.79823404307884, 18.147754394380154]]]}, "properties": {"aou_id": "AOU-NJ-000009", "previous_ids": [], "first_seen_date": "2026-09-06", "last_seen_date": "2026-09-06", "active": true, "agricultural_probability": 49.46, "ag_class": "possible", "area_ha_est": 25.102, "ndvi": 0.5001, "ndmi": 0.08, "ndre": null, "ndre_available": false, "ndre_status": "unavailable", "member_count": 1, "geometry_kind": "aou_segment", "aou_not_official_farm": true, "formula_ref": "SCIENCE_LOCKS_v0.4_phase1_2.md\u00a71-2", "date": "2026-09-06"}}]}