{"type": "FeatureCollection", "name": "aou_registry", "properties": {"formula_ref": "SCIENCE_LOCKS_v0.4_phase1_2.md\u00a72 + SCIENCE_LOCKS_v0.4_aou_temporal_ledger.md + SCIENCE_LOCKS_v0.4_observation_integrity.md + SCIENCE_LOCKS_v0.4_post_integrity_evaluator.md + SCIENCE_LOCKS_v0.4_evaluator_deep_recheck.md", "aou_not_official_farm": true, "count": 9, "product_stamp": "provisional_satellite_analytical_service", "najd_model_validation": "not_validated", "active_means": "registry_identity_only", "current_detection_enum": ["detected", "weak", "not_detected"], "join_rule": "max_overlap_area", "run_id": "20261003T151210Z-c940410c", "last_updated": "2026-10-03T15:12:53.035368+00:00", "release_id": "20261003T151210Z-c940410c"}, "features": [{"type": "Feature", "geometry": {"type": "Polygon", "coordinates": [[[53.70234795493869, 18.054307093365658], [53.70241699983863, 18.058821333333018], [53.7071363777756, 18.058755222593653], [53.70706721265756, 18.054241000258138], [53.70234795493869, 18.054307093365658]]]}, "properties": {"aou_id": "AOU-NJ-000001", "previous_ids": [], "first_seen_date": "2026-08-17", "last_seen_date": "2026-09-29", "active": true, "current_detection": "detected", "refresh_status": "refreshed", "observation_role": "current_observation", "agricultural_probability": 16.55, "ag_evidence": {"version": "activity_evidence_v2", "score_semantics": "vegetation_activity_heuristic_not_land_use_probability", "calibrated_probability": false, "land_use_status": "not_established_by_score", "inputs": {"ndvi": 0.21265, "ndmi": -0.0311, "month": 9, "n_clear_dates": 9, "n_dates_above_bare": 5}, "weights": {"ndvi_peak": 0.27, "persistence": 0.18, "ndmi": 0.2, "swir": 0.12, "phenology": 0.13, "texture": 0.1}, "features": {"ndvi_peak": 0.057281, "persistence": 0.555556, "ndmi": 0.04725, "swir": 0.0, "phenology": 0.042961, "texture": 0.35}, "sources": {"ndvi_peak": "current_ndvi_transform", "ndmi": "current_ndmi_transform", "swir": "band_derived_swir", "phenology": "derived_ndvi_month", "persistence": "derived_clear_date_counts", "texture": "default_not_measured"}, "contributions_points": {"ndvi_peak": 1.546579, "persistence": 10.0, "ndmi": 0.945, "swir": 0.0, "phenology": 0.558487, "texture": 3.5}, "boost_points": 0.0, "score": 16.55, "vegetation_features_at_floor": false, "correlated_floor_collapse": false, "correlated_ndvi_ndmi_weight": 0.6, "swir_coverage": {"aggregation": "equal_clear_member_mean", "clear_members": 2, "measured_members": 2, "complete": true, "band_sources": ["b11_b12"]}}, "ag_class": "unlikely", "area_ha_est": 25.106, "ndvi": 0.2127, "ndmi": -0.0311, "ndre": null, "ndre_available": false, "ndre_status": "unavailable", "member_count": 1, "geometry_kind": "aou_segment", "aou_not_official_farm": true, "n_clear_dates": 9, "n_dates_above_bare": 5, "persistence_feature": 0.5555555555555556, "persistence_status": "multi_date", "persistence_estimated_from_window": false, "assessability": "assessable", "clear_member_count": 2, "clear_fraction": 1.0, "assessable_cell_fraction": 1.0, "valid_area_fraction": 0.9999999012547719, "stress_flags_recent_water": [true, true, true], "stress_flags_recent_vigor": [false, false, false], "water_stress_score": 69.73, "vigor_stress_score": 36.39, "alert": "healthy", "possible_biotic_stress": false, "biotic_status": "not_flagged", "biotic_status_last_trusted": "not_flagged", "biotic_last_trusted_date": "2026-09-29", "valid_area_fraction_basis": "overlap_times_clear_fraction_estimate", "valid_area_fraction_denominator": "aou_target_area", "clear_fraction_missing": false, "aou_target_area": 2.1308659526346988e-05, "discovery_status": "established", "discovery_action": null, "match_iou": null, "aggregate_id": "AOU-NJ-000001|2026-09-29|20261003T151210Z-c940410c", "aou_date_aggregate": {"aggregate_id": "AOU-NJ-000001|2026-09-29|20261003T151210Z-c940410c", "aou_id": "AOU-NJ-000001", "date": "2026-09-29", "run_id": "20261003T151210Z-c940410c", "ndvi": 0.2127, "ndmi": -0.0311, "water_stress_score": 69.73, "vigor_stress_score": 36.39, "alert": "healthy", "agricultural_probability": 16.55, "ag_class": "unlikely", "persistence_feature": 0.5555555555555556, "n_clear_dates": 9, "n_dates_above_bare": 5, "assessability": "assessable", "assessable_cell_fraction": 1.0, "valid_area_fraction": 0.9999999012547719, "clear_member_fraction": 1.0, "clear_member_count": 2, "member_count": 2, "observation_role": "current_observation", "biotic_status": "not_flagged", "possible_biotic_stress": false, "refresh_status": "refreshed", "accepted_cells": [{"ndvi": 0.308, "ndmi": 0.008, "pixel_count": 2500, "aou_overlap_area": 1.912436513985401e-05, "product_id": "S2B_MSIL2A_20260929T064629_R020_T39QYA_20260929T105217"}, {"ndvi": 0.1173, "ndmi": -0.0702, "pixel_count": 2500, "aou_overlap_area": 2.1842922823645305e-06, "product_id": "S2B_MSIL2A_20260929T064629_R020_T39QYA_20260929T105217"}], "sources": ["Copernicus Sentinel-2 L2A (ESA) via Microsoft Planetary Computer"], "coverage": {"assessable_cell_fraction": 1.0, "valid_area_fraction": 0.9999999012547719, "valid_area_fraction_basis": "overlap_times_clear_fraction_estimate", "valid_area_fraction_denominator": "aou_target_area", "clear_member_fraction": 1.0}, "ag_evidence": {"version": "activity_evidence_v2", "score_semantics": "vegetation_activity_heuristic_not_land_use_probability", "calibrated_probability": false, "land_use_status": "not_established_by_score", "inputs": {"ndvi": 0.21265, "ndmi": -0.0311, "month": 9, "n_clear_dates": 9, "n_dates_above_bare": 5}, "weights": {"ndvi_peak": 0.27, "persistence": 0.18, "ndmi": 0.2, "swir": 0.12, "phenology": 0.13, "texture": 0.1}, "features": {"ndvi_peak": 0.057281, "persistence": 0.555556, "ndmi": 0.04725, "swir": 0.0, "phenology": 0.042961, "texture": 0.35}, "sources": {"ndvi_peak": "current_ndvi_transform", "ndmi": "current_ndmi_transform", "swir": "band_derived_swir", "phenology": "derived_ndvi_month", "persistence": "derived_clear_date_counts", "texture": "default_not_measured"}, "contributions_points": {"ndvi_peak": 1.546579, "persistence": 10.0, "ndmi": 0.945, "swir": 0.0, "phenology": 0.558487, "texture": 3.5}, "boost_points": 0.0, "score": 16.55, "vegetation_features_at_floor": false, "correlated_floor_collapse": false, "correlated_ndvi_ndmi_weight": 0.6, "swir_coverage": {"aggregation": "equal_clear_member_mean", "clear_members": 2, "measured_members": 2, "complete": true, "band_sources": ["b11_b12"]}}}, "last_good_date": "2026-09-29", "evidence_level": "satellite_only", "product_stamp": "provisional_satellite_analytical_service", "najd_model_validation": "not_validated", "formula_ref": "SCIENCE_LOCKS_v0.4_phase1_2.md\u00a71-2 + SCIENCE_LOCKS_v0.4_aou_temporal_ledger.md + SCIENCE_LOCKS_v0.4_observation_integrity.md + SCIENCE_LOCKS_v0.4_post_integrity_evaluator.md + SCIENCE_LOCKS_v0.4_evaluator_deep_recheck.md + SCIENCE_LOCKS_v0.4_post29_evaluator_residuals.md", "date": "2026-09-29", "join_rule": "max_overlap_area", "temporal_evidence_sufficient": true, "temporal_evidence_ar": null, "temporal_evidence_en": null, "biotic_unknown_reason": null, "release_id": "20261003T151210Z-c940410c", "run_id": "20261003T151210Z-c940410c"}}, {"type": "Feature", "geometry": {"type": "Polygon", "coordinates": [[[53.73629245197536, 18.11252534848183], [53.73636260450939, 18.117039433556084], [53.74108340578815, 18.11697228554525], [53.74115369950671, 18.121486350385673], [53.745874600951055, 18.12141906906858], [53.74580418654105, 18.116905022117656], [53.74573379269212, 18.11239097278996], [53.741013132595455, 18.112458218328936], [53.7409428799262, 18.107944148737268], [53.73622231992956, 18.108011261033113], [53.73629245197536, 18.11252534848183]]]}, "properties": {"aou_id": "AOU-NJ-000002", "previous_ids": [], "first_seen_date": "2026-08-17", "last_seen_date": "2026-09-29", "active": true, "current_detection": "detected", "refresh_status": "refreshed", "observation_role": "current_observation", "agricultural_probability": 25.7, "ag_evidence": {"version": "activity_evidence_v2", "score_semantics": "vegetation_activity_heuristic_not_land_use_probability", "calibrated_probability": false, "land_use_status": "not_established_by_score", "inputs": {"ndvi": 0.24988749999999998, "ndmi": -0.0110375, "month": 9, "n_clear_dates": 8, "n_dates_above_bare": 7}, "weights": {"ndvi_peak": 0.27, "persistence": 0.18, "ndmi": 0.2, "swir": 0.12, "phenology": 0.13, "texture": 0.1}, "features": {"ndvi_peak": 0.12261, "persistence": 0.875, "ndmi": 0.097406, "swir": 0.0, "phenology": 0.091957, "texture": 0.35}, "sources": {"ndvi_peak": "current_ndvi_transform", "ndmi": "current_ndmi_transform", "swir": "band_derived_swir", "phenology": "derived_ndvi_month", "persistence": "derived_clear_date_counts", "texture": "default_not_measured"}, "contributions_points": {"ndvi_peak": 3.310461, "persistence": 15.75, "ndmi": 1.948125, "swir": 0.0, "phenology": 1.195444, "texture": 3.5}, "boost_points": 0.0, "score": 25.7, "vegetation_features_at_floor": false, "correlated_floor_collapse": false, "correlated_ndvi_ndmi_weight": 0.6, "swir_coverage": {"aggregation": "equal_clear_member_mean", "clear_members": 8, "measured_members": 8, "complete": true, "band_sources": ["b11_b12"]}}, "ag_class": "unlikely", "area_ha_est": 100.416, "ndvi": 0.2499, "ndmi": -0.011, "ndre": null, "ndre_available": false, "ndre_status": "unavailable", "member_count": 7, "geometry_kind": "aou_segment", "aou_not_official_farm": true, "n_clear_dates": 8, "n_dates_above_bare": 7, "persistence_feature": 0.875, "persistence_status": "multi_date", "persistence_estimated_from_window": false, "assessability": "assessable", "clear_member_count": 8, "clear_fraction": 1.0, "assessable_cell_fraction": 1.0, "valid_area_fraction": 0.9999999624376247, "stress_flags_recent_water": [false, false, false], "stress_flags_recent_vigor": [false, false, false], "water_stress_score": 41.74, "vigor_stress_score": 28.0, "alert": "healthy", "possible_biotic_stress": false, "biotic_status": "not_flagged", "biotic_status_last_trusted": "not_flagged", "biotic_last_trusted_date": "2026-09-29", "valid_area_fraction_basis": "overlap_times_clear_fraction_estimate", "valid_area_fraction_denominator": "aou_target_area", "clear_fraction_missing": false, "aou_target_area": 8.525767107452469e-05, "discovery_status": "established", "discovery_action": null, "match_iou": null, "aggregate_id": "AOU-NJ-000002|2026-09-29|20261003T151210Z-c940410c", "aou_date_aggregate": {"aggregate_id": "AOU-NJ-000002|2026-09-29|20261003T151210Z-c940410c", "aou_id": "AOU-NJ-000002", "date": "2026-09-29", "run_id": "20261003T151210Z-c940410c", "ndvi": 0.2499, "ndmi": -0.011, "water_stress_score": 41.74, "vigor_stress_score": 28.0, "alert": "healthy", "agricultural_probability": 25.7, "ag_class": "unlikely", "persistence_feature": 0.875, "n_clear_dates": 8, "n_dates_above_bare": 7, "assessability": "assessable", "assessable_cell_fraction": 1.0, "valid_area_fraction": 0.9999999624376247, "clear_member_fraction": 1.0, "clear_member_count": 8, "member_count": 8, "observation_role": "current_observation", "biotic_status": "not_flagged", "possible_biotic_stress": false, "refresh_status": "refreshed", "accepted_cells": [{"ndvi": 0.1849, "ndmi": -0.0712, "pixel_count": 2500, "aou_overlap_area": 1.912994217816668e-05, "product_id": "S2B_MSIL2A_20260929T064629_R020_T39QYA_20260929T105217"}, {"ndvi": 0.2505, "ndmi": -0.0217, "pixel_count": 2500, "aou_overlap_area": 1.9129606374659234e-05, "product_id": "S2B_MSIL2A_20260929T064629_R020_T39QYA_20260929T105217"}, {"ndvi": 0.2386, "ndmi": -0.042, "pixel_count": 2500, "aou_overlap_area": 2.1314391101936305e-05, "product_id": "S2B_MSIL2A_20260929T064629_R020_T39QYA_20260929T105217"}, {"ndvi": 0.3516, "ndmi": 0.0905, "pixel_count": 2500, "aou_overlap_area": 1.0692115431705425e-12, "product_id": "S2B_MSIL2A_20260929T064629_R020_T39QYA_20260929T105217"}, {"ndvi": 0.2848, "ndmi": 0.0215, "pixel_count": 2500, "aou_overlap_area": 1.0654890415481476e-12, "product_id": "S2B_MSIL2A_20260929T064629_R020_T39QYA_20260929T105217"}, {"ndvi": 0.3798, "ndmi": 0.0441, "pixel_count": 2500, "aou_overlap_area": 2.131401504711693e-05, "product_id": "S2B_MSIL2A_20260929T064629_R020_T39QYA_20260929T105217"}, {"ndvi": 0.2308, "ndmi": -0.0381, "pixel_count": 2500, "aou_overlap_area": 2.1848752780515038e-06, "product_id": "S2B_MSIL2A_20260929T064629_R020_T39QYA_20260929T105217"}, {"ndvi": 0.0781, "ndmi": -0.0714, "pixel_count": 2500, "aou_overlap_area": 2.18483575741281e-06, "product_id": "S2B_MSIL2A_20260929T064629_R020_T39QYA_20260929T105217"}], "sources": ["Copernicus Sentinel-2 L2A (ESA) via Microsoft Planetary Computer"], "coverage": {"assessable_cell_fraction": 1.0, "valid_area_fraction": 0.9999999624376247, "valid_area_fraction_basis": "overlap_times_clear_fraction_estimate", "valid_area_fraction_denominator": "aou_target_area", "clear_member_fraction": 1.0}, "ag_evidence": {"version": "activity_evidence_v2", "score_semantics": "vegetation_activity_heuristic_not_land_use_probability", "calibrated_probability": false, "land_use_status": "not_established_by_score", "inputs": {"ndvi": 0.24988749999999998, "ndmi": -0.0110375, "month": 9, "n_clear_dates": 8, "n_dates_above_bare": 7}, "weights": {"ndvi_peak": 0.27, "persistence": 0.18, "ndmi": 0.2, "swir": 0.12, "phenology": 0.13, "texture": 0.1}, "features": {"ndvi_peak": 0.12261, "persistence": 0.875, "ndmi": 0.097406, "swir": 0.0, "phenology": 0.091957, "texture": 0.35}, "sources": {"ndvi_peak": "current_ndvi_transform", "ndmi": "current_ndmi_transform", "swir": "band_derived_swir", "phenology": "derived_ndvi_month", "persistence": "derived_clear_date_counts", "texture": "default_not_measured"}, "contributions_points": {"ndvi_peak": 3.310461, "persistence": 15.75, "ndmi": 1.948125, "swir": 0.0, "phenology": 1.195444, "texture": 3.5}, "boost_points": 0.0, "score": 25.7, "vegetation_features_at_floor": false, "correlated_floor_collapse": false, "correlated_ndvi_ndmi_weight": 0.6, "swir_coverage": {"aggregation": "equal_clear_member_mean", "clear_members": 8, "measured_members": 8, "complete": true, "band_sources": ["b11_b12"]}}}, "last_good_date": "2026-09-29", "evidence_level": "satellite_only", "product_stamp": "provisional_satellite_analytical_service", "najd_model_validation": "not_validated", "formula_ref": "SCIENCE_LOCKS_v0.4_phase1_2.md\u00a71-2 + SCIENCE_LOCKS_v0.4_aou_temporal_ledger.md + SCIENCE_LOCKS_v0.4_observation_integrity.md + SCIENCE_LOCKS_v0.4_post_integrity_evaluator.md + SCIENCE_LOCKS_v0.4_evaluator_deep_recheck.md + SCIENCE_LOCKS_v0.4_post29_evaluator_residuals.md", "date": "2026-09-29", "join_rule": "max_overlap_area", "temporal_evidence_sufficient": true, "temporal_evidence_ar": null, "temporal_evidence_en": null, "biotic_unknown_reason": null, "release_id": "20261003T151210Z-c940410c", "run_id": "20261003T151210Z-c940410c"}}, {"type": "Feature", "geometry": {"type": "Polygon", "coordinates": [[[53.741646330465564, 18.153084737698844], [53.74636807773636, 18.15301733113047], [53.746297519330454, 18.14850330083195], [53.746226981502716, 18.1439892681529], [53.741505476072795, 18.144056638930774], [53.741575892997716, 18.148570689504627], [53.741646330465564, 18.153084737698844]]]}, "properties": {"aou_id": "AOU-NJ-000003", "previous_ids": [], "first_seen_date": "2026-08-17", "last_seen_date": "2026-09-29", "active": true, "current_detection": "detected", "refresh_status": "refreshed", "observation_role": "current_observation", "agricultural_probability": 29.15, "ag_evidence": {"version": "activity_evidence_v2", "score_semantics": "vegetation_activity_heuristic_not_land_use_probability", "calibrated_probability": false, "land_use_status": "not_established_by_score", "inputs": {"ndvi": 0.26036000000000004, "ndmi": -0.0006599999999999995, "month": 9, "n_clear_dates": 8, "n_dates_above_bare": 8}, "weights": {"ndvi_peak": 0.27, "persistence": 0.18, "ndmi": 0.2, "swir": 0.12, "phenology": 0.13, "texture": 0.1}, "features": {"ndvi_peak": 0.140982, "persistence": 1.0, "ndmi": 0.12335, "swir": 0.0, "phenology": 0.105737, "texture": 0.35}, "sources": {"ndvi_peak": "current_ndvi_transform", "ndmi": "current_ndmi_transform", "swir": "band_derived_swir", "phenology": "derived_ndvi_month", "persistence": "derived_clear_date_counts", "texture": "default_not_measured"}, "contributions_points": {"ndvi_peak": 3.806526, "persistence": 18.0, "ndmi": 2.467, "swir": 0.0, "phenology": 1.374579, "texture": 3.5}, "boost_points": 0.0, "score": 29.15, "vegetation_features_at_floor": false, "correlated_floor_collapse": false, "correlated_ndvi_ndmi_weight": 0.6, "swir_coverage": {"aggregation": "equal_clear_member_mean", "clear_members": 5, "measured_members": 5, "complete": true, "band_sources": ["b11_b12"]}}, "ag_class": "unlikely", "area_ha_est": 50.208, "ndvi": 0.2604, "ndmi": -0.0007, "ndre": null, "ndre_available": false, "ndre_status": "unavailable", "member_count": 3, "geometry_kind": "aou_segment", "aou_not_official_farm": true, "n_clear_dates": 8, "n_dates_above_bare": 8, "persistence_feature": 1.0, "persistence_status": "multi_date", "persistence_estimated_from_window": false, "assessability": "assessable", "clear_member_count": 5, "clear_fraction": 1.0, "assessable_cell_fraction": 1.0, "valid_area_fraction": 0.9999999498409037, "stress_flags_recent_water": [false, false, false], "stress_flags_recent_vigor": [false, false, false], "water_stress_score": 35.96, "vigor_stress_score": 32.83, "alert": "healthy", "possible_biotic_stress": false, "biotic_status": "not_flagged", "biotic_status_last_trusted": "not_flagged", "biotic_last_trusted_date": "2026-09-29", "valid_area_fraction_basis": "overlap_times_clear_fraction_estimate", "valid_area_fraction_denominator": "aou_target_area", "clear_fraction_missing": false, "aou_target_area": 4.2636724602053994e-05, "discovery_status": "established", "discovery_action": null, "match_iou": null, "aggregate_id": "AOU-NJ-000003|2026-09-29|20261003T151210Z-c940410c", "aou_date_aggregate": {"aggregate_id": "AOU-NJ-000003|2026-09-29|20261003T151210Z-c940410c", "aou_id": "AOU-NJ-000003", "date": "2026-09-29", "run_id": "20261003T151210Z-c940410c", "ndvi": 0.2604, "ndmi": -0.0007, "water_stress_score": 35.96, "vigor_stress_score": 32.83, "alert": "healthy", "agricultural_probability": 29.15, "ag_class": "unlikely", "persistence_feature": 1.0, "n_clear_dates": 8, "n_dates_above_bare": 8, "assessability": "assessable", "assessable_cell_fraction": 1.0, "valid_area_fraction": 0.9999999498409037, "clear_member_fraction": 1.0, "clear_member_count": 5, "member_count": 5, "observation_role": "current_observation", "biotic_status": "not_flagged", "possible_biotic_stress": false, "refresh_status": "refreshed", "accepted_cells": [{"ndvi": 0.3697, "ndmi": 0.0461, "pixel_count": 2500, "aou_overlap_area": 1.9133314504028206e-05, "product_id": "S2B_MSIL2A_20260929T064629_R020_T39QYA_20260929T105217"}, {"ndvi": 0.156, "ndmi": -0.0582, "pixel_count": 2500, "aou_overlap_area": 1.0683337957772336e-12, "product_id": "S2B_MSIL2A_20260929T064629_R020_T39QYA_20260929T105217"}, {"ndvi": 0.317, "ndmi": 0.0185, "pixel_count": 2500, "aou_overlap_area": 2.1318146603492165e-05, "product_id": "S2B_MSIL2A_20260929T064629_R020_T39QYA_20260929T105217"}, {"ndvi": 0.391, "ndmi": 0.0736, "pixel_count": 2500, "aou_overlap_area": 1.0700821879642653e-12, "product_id": "S2B_MSIL2A_20260929T064629_R020_T39QYA_20260929T105217"}, {"ndvi": 0.0681, "ndmi": -0.0833, "pixel_count": 2500, "aou_overlap_area": 2.1852592174980565e-06, "product_id": "S2B_MSIL2A_20260929T064629_R020_T39QYA_20260929T105217"}], "sources": ["Copernicus Sentinel-2 L2A (ESA) via Microsoft Planetary Computer"], "coverage": {"assessable_cell_fraction": 1.0, "valid_area_fraction": 0.9999999498409037, "valid_area_fraction_basis": "overlap_times_clear_fraction_estimate", "valid_area_fraction_denominator": "aou_target_area", "clear_member_fraction": 1.0}, "ag_evidence": {"version": "activity_evidence_v2", "score_semantics": "vegetation_activity_heuristic_not_land_use_probability", "calibrated_probability": false, "land_use_status": "not_established_by_score", "inputs": {"ndvi": 0.26036000000000004, "ndmi": -0.0006599999999999995, "month": 9, "n_clear_dates": 8, "n_dates_above_bare": 8}, "weights": {"ndvi_peak": 0.27, "persistence": 0.18, "ndmi": 0.2, "swir": 0.12, "phenology": 0.13, "texture": 0.1}, "features": {"ndvi_peak": 0.140982, "persistence": 1.0, "ndmi": 0.12335, "swir": 0.0, "phenology": 0.105737, "texture": 0.35}, "sources": {"ndvi_peak": "current_ndvi_transform", "ndmi": "current_ndmi_transform", "swir": "band_derived_swir", "phenology": "derived_ndvi_month", "persistence": "derived_clear_date_counts", "texture": "default_not_measured"}, "contributions_points": {"ndvi_peak": 3.806526, "persistence": 18.0, "ndmi": 2.467, "swir": 0.0, "phenology": 1.374579, "texture": 3.5}, "boost_points": 0.0, "score": 29.15, "vegetation_features_at_floor": false, "correlated_floor_collapse": false, "correlated_ndvi_ndmi_weight": 0.6, "swir_coverage": {"aggregation": "equal_clear_member_mean", "clear_members": 5, "measured_members": 5, "complete": true, "band_sources": ["b11_b12"]}}}, "last_good_date": "2026-09-29", "evidence_level": "satellite_only", "product_stamp": "provisional_satellite_analytical_service", "najd_model_validation": "not_validated", "formula_ref": "SCIENCE_LOCKS_v0.4_phase1_2.md\u00a71-2 + SCIENCE_LOCKS_v0.4_aou_temporal_ledger.md + SCIENCE_LOCKS_v0.4_observation_integrity.md + SCIENCE_LOCKS_v0.4_post_integrity_evaluator.md + SCIENCE_LOCKS_v0.4_evaluator_deep_recheck.md + SCIENCE_LOCKS_v0.4_post29_evaluator_residuals.md", "date": "2026-09-29", "join_rule": "max_overlap_area", "temporal_evidence_sufficient": true, "temporal_evidence_ar": null, "temporal_evidence_en": null, "biotic_unknown_reason": null, "release_id": "20261003T151210Z-c940410c", "run_id": "20261003T151210Z-c940410c"}}, {"type": "Feature", "geometry": {"type": "Polygon", "coordinates": [[[53.90953014024016, 18.02420957194014], [53.90960434191477, 18.028723021502117], [53.91432207555026, 18.028651965263133], [53.91424775397743, 18.02413853467612], [53.90953014024016, 18.02420957194014]]]}, "properties": {"aou_id": "AOU-NJ-000004", "previous_ids": [], "first_seen_date": "2026-08-17", "last_seen_date": "2026-09-29", "active": true, "current_detection": "detected", "refresh_status": "refreshed", "observation_role": "current_observation", "agricultural_probability": 12.18, "ag_evidence": {"version": "activity_evidence_v2", "score_semantics": "vegetation_activity_heuristic_not_land_use_probability", "calibrated_probability": false, "land_use_status": "not_established_by_score", "inputs": {"ndvi": 0.188425, "ndmi": -0.0372, "month": 9, "n_clear_dates": 12, "n_dates_above_bare": 5}, "weights": {"ndvi_peak": 0.27, "persistence": 0.18, "ndmi": 0.2, "swir": 0.12, "phenology": 0.13, "texture": 0.1}, "features": {"ndvi_peak": 0.014781, "persistence": 0.416667, "ndmi": 0.032, "swir": 0.0, "phenology": 0.011086, "texture": 0.35}, "sources": {"ndvi_peak": "current_ndvi_transform", "ndmi": "current_ndmi_transform", "swir": "band_derived_swir", "phenology": "derived_ndvi_month", "persistence": "derived_clear_date_counts", "texture": "default_not_measured"}, "contributions_points": {"ndvi_peak": 0.399079, "persistence": 7.5, "ndmi": 0.64, "swir": 0.0, "phenology": 0.144112, "texture": 3.5}, "boost_points": 0.0, "score": 12.18, "vegetation_features_at_floor": false, "correlated_floor_collapse": false, "correlated_ndvi_ndmi_weight": 0.6, "swir_coverage": {"aggregation": "equal_clear_member_mean", "clear_members": 4, "measured_members": 4, "complete": true, "band_sources": ["b11_b12"]}}, "ag_class": "unlikely", "area_ha_est": 25.098, "ndvi": 0.1884, "ndmi": -0.0372, "ndre": null, "ndre_available": false, "ndre_status": "unavailable", "member_count": 2, "geometry_kind": "aou_segment", "aou_not_official_farm": true, "n_clear_dates": 12, "n_dates_above_bare": 5, "persistence_feature": 0.4166666666666667, "persistence_status": "multi_date", "persistence_estimated_from_window": false, "assessability": "assessable", "clear_member_count": 4, "clear_fraction": 1.0, "assessable_cell_fraction": 1.0, "valid_area_fraction": 0.9999999891083816, "stress_flags_recent_water": [true, true, true], "stress_flags_recent_vigor": [true, true, true], "water_stress_score": 68.5, "vigor_stress_score": 64.39, "alert": "healthy", "possible_biotic_stress": false, "biotic_status": "not_flagged", "biotic_status_last_trusted": "not_flagged", "biotic_last_trusted_date": "2026-09-29", "valid_area_fraction_basis": "overlap_times_clear_fraction_estimate", "valid_area_fraction_denominator": "aou_target_area", "clear_fraction_missing": false, "aou_target_area": 2.129821352162162e-05, "discovery_status": "established", "discovery_action": null, "match_iou": null, "aggregate_id": "AOU-NJ-000004|2026-09-29|20261003T151210Z-c940410c", "aou_date_aggregate": {"aggregate_id": "AOU-NJ-000004|2026-09-29|20261003T151210Z-c940410c", "aou_id": "AOU-NJ-000004", "date": "2026-09-29", "run_id": "20261003T151210Z-c940410c", "ndvi": 0.1884, "ndmi": -0.0372, "water_stress_score": 68.5, "vigor_stress_score": 64.39, "alert": "healthy", "agricultural_probability": 12.18, "ag_class": "unlikely", "persistence_feature": 0.4166666666666667, "n_clear_dates": 12, "n_dates_above_bare": 5, "assessability": "assessable", "assessable_cell_fraction": 1.0, "valid_area_fraction": 0.9999999891083816, "clear_member_fraction": 1.0, "clear_member_count": 4, "member_count": 4, "observation_role": "current_observation", "biotic_status": "not_flagged", "possible_biotic_stress": false, "refresh_status": "refreshed", "accepted_cells": [{"ndvi": 0.0815, "ndmi": -0.0932, "pixel_count": 2500, "aou_overlap_area": 1.0147434249425961e-12, "product_id": "S2B_MSIL2A_20260929T064629_R020_T39QYA_20260929T105217"}, {"ndvi": 0.2751, "ndmi": -0.0023, "pixel_count": 2500, "aou_overlap_area": 1.9114989735861895e-05, "product_id": "S2B_MSIL2A_20260929T064629_R020_T39QYA_20260929T105217"}, {"ndvi": 0.0747, "ndmi": -0.0832, "pixel_count": 2500, "aou_overlap_area": 1.0163099965636881e-12, "product_id": "S2B_MSIL2A_20260929T064629_R020_T39QYA_20260929T105217"}, {"ndvi": 0.3224, "ndmi": 0.0299, "pixel_count": 2500, "aou_overlap_area": 2.1832215227342933e-06, "product_id": "S2B_MSIL2A_20260929T064629_R020_T39QYA_20260929T105217"}], "sources": ["Copernicus Sentinel-2 L2A (ESA) via Microsoft Planetary Computer"], "coverage": {"assessable_cell_fraction": 1.0, "valid_area_fraction": 0.9999999891083816, "valid_area_fraction_basis": "overlap_times_clear_fraction_estimate", "valid_area_fraction_denominator": "aou_target_area", "clear_member_fraction": 1.0}, "ag_evidence": {"version": "activity_evidence_v2", "score_semantics": "vegetation_activity_heuristic_not_land_use_probability", "calibrated_probability": false, "land_use_status": "not_established_by_score", "inputs": {"ndvi": 0.188425, "ndmi": -0.0372, "month": 9, "n_clear_dates": 12, "n_dates_above_bare": 5}, "weights": {"ndvi_peak": 0.27, "persistence": 0.18, "ndmi": 0.2, "swir": 0.12, "phenology": 0.13, "texture": 0.1}, "features": {"ndvi_peak": 0.014781, "persistence": 0.416667, "ndmi": 0.032, "swir": 0.0, "phenology": 0.011086, "texture": 0.35}, "sources": {"ndvi_peak": "current_ndvi_transform", "ndmi": "current_ndmi_transform", "swir": "band_derived_swir", "phenology": "derived_ndvi_month", "persistence": "derived_clear_date_counts", "texture": "default_not_measured"}, "contributions_points": {"ndvi_peak": 0.399079, "persistence": 7.5, "ndmi": 0.64, "swir": 0.0, "phenology": 0.144112, "texture": 3.5}, "boost_points": 0.0, "score": 12.18, "vegetation_features_at_floor": false, "correlated_floor_collapse": false, "correlated_ndvi_ndmi_weight": 0.6, "swir_coverage": {"aggregation": "equal_clear_member_mean", "clear_members": 4, "measured_members": 4, "complete": true, "band_sources": ["b11_b12"]}}}, "last_good_date": "2026-09-29", "evidence_level": "satellite_only", "product_stamp": "provisional_satellite_analytical_service", "najd_model_validation": "not_validated", "formula_ref": "SCIENCE_LOCKS_v0.4_phase1_2.md\u00a71-2 + SCIENCE_LOCKS_v0.4_aou_temporal_ledger.md + SCIENCE_LOCKS_v0.4_observation_integrity.md + SCIENCE_LOCKS_v0.4_post_integrity_evaluator.md + SCIENCE_LOCKS_v0.4_evaluator_deep_recheck.md + SCIENCE_LOCKS_v0.4_post29_evaluator_residuals.md", "date": "2026-09-29", "join_rule": "max_overlap_area", "temporal_evidence_sufficient": true, "temporal_evidence_ar": null, "temporal_evidence_en": null, "biotic_unknown_reason": null, "release_id": "20261003T151210Z-c940410c", "run_id": "20261003T151210Z-c940410c"}}, {"type": "Feature", "geometry": {"type": "Polygon", "coordinates": [[[53.85306263630894, 18.034080417448422], [53.85778074852047, 18.034010719791073], [53.85770784453678, 18.029497065914345], [53.8529898522891, 18.029566744963418], [53.85306263630894, 18.034080417448422]]]}, "properties": {"aou_id": "AOU-NJ-000005", "previous_ids": [], "first_seen_date": "2026-08-17", "last_seen_date": "2026-09-29", "active": true, "current_detection": "detected", "refresh_status": "refreshed", "observation_role": "current_observation", "agricultural_probability": 32.41, "ag_evidence": {"version": "activity_evidence_v2", "score_semantics": "vegetation_activity_heuristic_not_land_use_probability", "calibrated_probability": false, "land_use_status": "not_established_by_score", "inputs": {"ndvi": 0.3128, "ndmi": 0.026949999999999998, "month": 9, "n_clear_dates": 12, "n_dates_above_bare": 11}, "weights": {"ndvi_peak": 0.27, "persistence": 0.18, "ndmi": 0.2, "swir": 0.12, "phenology": 0.13, "texture": 0.1}, "features": {"ndvi_peak": 0.232982, "persistence": 0.916667, "ndmi": 0.192375, "swir": 0.0, "phenology": 0.174737, "texture": 0.35}, "sources": {"ndvi_peak": "current_ndvi_transform", "ndmi": "current_ndmi_transform", "swir": "band_derived_swir", "phenology": "derived_ndvi_month", "persistence": "derived_clear_date_counts", "texture": "default_not_measured"}, "contributions_points": {"ndvi_peak": 6.290526, "persistence": 16.5, "ndmi": 3.8475, "swir": 0.0, "phenology": 2.271579, "texture": 3.5}, "boost_points": 0.0, "score": 32.41, "vegetation_features_at_floor": false, "correlated_floor_collapse": false, "correlated_ndvi_ndmi_weight": 0.6, "swir_coverage": {"aggregation": "equal_clear_member_mean", "clear_members": 2, "measured_members": 2, "complete": true, "band_sources": ["b11_b12"]}}, "ag_class": "possible", "area_ha_est": 25.1, "ndvi": 0.3128, "ndmi": 0.0269, "ndre": null, "ndre_available": false, "ndre_status": "unavailable", "member_count": 2, "geometry_kind": "aou_segment", "aou_not_official_farm": true, "n_clear_dates": 12, "n_dates_above_bare": 11, "persistence_feature": 0.9166666666666666, "persistence_status": "multi_date", "persistence_estimated_from_window": false, "assessability": "assessable", "clear_member_count": 2, "clear_fraction": 1.0, "assessable_cell_fraction": 1.0, "valid_area_fraction": 0.9999998957977093, "stress_flags_recent_water": [true, true, true], "stress_flags_recent_vigor": [false, false, false], "water_stress_score": 49.95, "vigor_stress_score": 29.55, "alert": "water_attention", "possible_biotic_stress": false, "biotic_status": "not_flagged", "biotic_status_last_trusted": "not_flagged", "biotic_last_trusted_date": "2026-09-29", "valid_area_fraction_basis": "overlap_times_clear_fraction_estimate", "valid_area_fraction_denominator": "aou_target_area", "clear_fraction_missing": false, "aou_target_area": 2.130077501269938e-05, "discovery_status": "established", "discovery_action": null, "match_iou": null, "aggregate_id": "AOU-NJ-000005|2026-09-29|20261003T151210Z-c940410c", "aou_date_aggregate": {"aggregate_id": "AOU-NJ-000005|2026-09-29|20261003T151210Z-c940410c", "aou_id": "AOU-NJ-000005", "date": "2026-09-29", "run_id": "20261003T151210Z-c940410c", "ndvi": 0.3128, "ndmi": 0.0269, "water_stress_score": 49.95, "vigor_stress_score": 29.55, "alert": "water_attention", "agricultural_probability": 32.41, "ag_class": "possible", "persistence_feature": 0.9166666666666666, "n_clear_dates": 12, "n_dates_above_bare": 11, "assessability": "assessable", "assessable_cell_fraction": 1.0, "valid_area_fraction": 0.9999998957977093, "clear_member_fraction": 1.0, "clear_member_count": 2, "member_count": 2, "observation_role": "current_observation", "biotic_status": "not_flagged", "possible_biotic_stress": false, "refresh_status": "refreshed", "accepted_cells": [{"ndvi": 0.4188, "ndmi": 0.0657, "pixel_count": 2500, "aou_overlap_area": 1.9117288703468138e-05, "product_id": "S2B_MSIL2A_20260929T064629_R020_T39QYA_20260929T105217"}, {"ndvi": 0.2068, "ndmi": -0.0118, "pixel_count": 2500, "aou_overlap_area": 2.1834840896416932e-06, "product_id": "S2B_MSIL2A_20260929T064629_R020_T39QYA_20260929T105217"}], "sources": ["Copernicus Sentinel-2 L2A (ESA) via Microsoft Planetary Computer"], "coverage": {"assessable_cell_fraction": 1.0, "valid_area_fraction": 0.9999998957977093, "valid_area_fraction_basis": "overlap_times_clear_fraction_estimate", "valid_area_fraction_denominator": "aou_target_area", "clear_member_fraction": 1.0}, "ag_evidence": {"version": "activity_evidence_v2", "score_semantics": "vegetation_activity_heuristic_not_land_use_probability", "calibrated_probability": false, "land_use_status": "not_established_by_score", "inputs": {"ndvi": 0.3128, "ndmi": 0.026949999999999998, "month": 9, "n_clear_dates": 12, "n_dates_above_bare": 11}, "weights": {"ndvi_peak": 0.27, "persistence": 0.18, "ndmi": 0.2, "swir": 0.12, "phenology": 0.13, "texture": 0.1}, "features": {"ndvi_peak": 0.232982, "persistence": 0.916667, "ndmi": 0.192375, "swir": 0.0, "phenology": 0.174737, "texture": 0.35}, "sources": {"ndvi_peak": "current_ndvi_transform", "ndmi": "current_ndmi_transform", "swir": "band_derived_swir", "phenology": "derived_ndvi_month", "persistence": "derived_clear_date_counts", "texture": "default_not_measured"}, "contributions_points": {"ndvi_peak": 6.290526, "persistence": 16.5, "ndmi": 3.8475, "swir": 0.0, "phenology": 2.271579, "texture": 3.5}, "boost_points": 0.0, "score": 32.41, "vegetation_features_at_floor": false, "correlated_floor_collapse": false, "correlated_ndvi_ndmi_weight": 0.6, "swir_coverage": {"aggregation": "equal_clear_member_mean", "clear_members": 2, "measured_members": 2, "complete": true, "band_sources": ["b11_b12"]}}}, "last_good_date": "2026-09-29", "evidence_level": "satellite_only", "product_stamp": "provisional_satellite_analytical_service", "najd_model_validation": "not_validated", "formula_ref": "SCIENCE_LOCKS_v0.4_phase1_2.md\u00a71-2 + SCIENCE_LOCKS_v0.4_aou_temporal_ledger.md + SCIENCE_LOCKS_v0.4_observation_integrity.md + SCIENCE_LOCKS_v0.4_post_integrity_evaluator.md + SCIENCE_LOCKS_v0.4_evaluator_deep_recheck.md + SCIENCE_LOCKS_v0.4_post29_evaluator_residuals.md", "date": "2026-09-29", "join_rule": "max_overlap_area", "temporal_evidence_sufficient": true, "temporal_evidence_ar": null, "temporal_evidence_en": null, "biotic_unknown_reason": null, "release_id": "20261003T151210Z-c940410c", "run_id": "20261003T151210Z-c940410c"}}, {"type": "Feature", "geometry": {"type": "Polygon", "coordinates": [[[53.83418997456093, 18.034358059942015], [53.834262299885104, 18.03887180416965], [53.83898061719617, 18.038802547284526], [53.84369891328476, 18.038733175550654], [53.84362634794508, 18.03421946832691], [53.83890817186298, 18.034288821543516], [53.83418997456093, 18.034358059942015]]]}, "properties": {"aou_id": "AOU-NJ-000006", "previous_ids": [], "first_seen_date": "2026-08-17", "last_seen_date": "2026-09-29", "active": true, "current_detection": "detected", "refresh_status": "refreshed", "observation_role": "current_observation", "agricultural_probability": 25.05, "ag_evidence": {"version": "activity_evidence_v2", "score_semantics": "vegetation_activity_heuristic_not_land_use_probability", "calibrated_probability": false, "land_use_status": "not_established_by_score", "inputs": {"ndvi": 0.21785, "ndmi": -0.027775, "month": 9, "n_clear_dates": 12, "n_dates_above_bare": 12}, "weights": {"ndvi_peak": 0.27, "persistence": 0.18, "ndmi": 0.2, "swir": 0.12, "phenology": 0.13, "texture": 0.1}, "features": {"ndvi_peak": 0.066404, "persistence": 1.0, "ndmi": 0.055563, "swir": 0.0, "phenology": 0.049803, "texture": 0.35}, "sources": {"ndvi_peak": "current_ndvi_transform", "ndmi": "current_ndmi_transform", "swir": "band_derived_swir", "phenology": "derived_ndvi_month", "persistence": "derived_clear_date_counts", "texture": "default_not_measured"}, "contributions_points": {"ndvi_peak": 1.792895, "persistence": 18.0, "ndmi": 1.11125, "swir": 0.0, "phenology": 0.647434, "texture": 3.5}, "boost_points": 0.0, "score": 25.05, "vegetation_features_at_floor": false, "correlated_floor_collapse": false, "correlated_ndvi_ndmi_weight": 0.6, "swir_coverage": {"aggregation": "equal_clear_member_mean", "clear_members": 4, "measured_members": 4, "complete": true, "band_sources": ["b11_b12"]}}, "ag_class": "unlikely", "area_ha_est": 50.201, "ndvi": 0.2178, "ndmi": -0.0278, "ndre": null, "ndre_available": false, "ndre_status": "unavailable", "member_count": 3, "geometry_kind": "aou_segment", "aou_not_official_farm": true, "n_clear_dates": 12, "n_dates_above_bare": 12, "persistence_feature": 1.0, "persistence_status": "multi_date", "persistence_estimated_from_window": false, "assessability": "assessable", "clear_member_count": 4, "clear_fraction": 1.0, "assessable_cell_fraction": 1.0, "valid_area_fraction": 0.9999999481955474, "stress_flags_recent_water": [false, false, false], "stress_flags_recent_vigor": [false, false, false], "water_stress_score": 43.45, "vigor_stress_score": 32.05, "alert": "healthy", "possible_biotic_stress": false, "biotic_status": "not_flagged", "biotic_status_last_trusted": "not_flagged", "biotic_last_trusted_date": "2026-09-29", "valid_area_fraction_basis": "overlap_times_clear_fraction_estimate", "valid_area_fraction_denominator": "aou_target_area", "clear_fraction_missing": false, "aou_target_area": 4.2603784718737945e-05, "discovery_status": "established", "discovery_action": null, "match_iou": null, "aggregate_id": "AOU-NJ-000006|2026-09-29|20261003T151210Z-c940410c", "aou_date_aggregate": {"aggregate_id": "AOU-NJ-000006|2026-09-29|20261003T151210Z-c940410c", "aou_id": "AOU-NJ-000006", "date": "2026-09-29", "run_id": "20261003T151210Z-c940410c", "ndvi": 0.2178, "ndmi": -0.0278, "water_stress_score": 43.45, "vigor_stress_score": 32.05, "alert": "healthy", "agricultural_probability": 25.05, "ag_class": "unlikely", "persistence_feature": 1.0, "n_clear_dates": 12, "n_dates_above_bare": 12, "assessability": "assessable", "assessable_cell_fraction": 1.0, "valid_area_fraction": 0.9999999481955474, "clear_member_fraction": 1.0, "clear_member_count": 4, "member_count": 4, "observation_role": "current_observation", "biotic_status": "not_flagged", "possible_biotic_stress": false, "refresh_status": "refreshed", "accepted_cells": [{"ndvi": 0.2483, "ndmi": -0.0245, "pixel_count": 2500, "aou_overlap_area": 1.9118367217245004e-05, "product_id": "S2B_MSIL2A_20260929T064629_R020_T39QYA_20260929T105217"}, {"ndvi": 0.3337, "ndmi": 0.0295, "pixel_count": 2500, "aou_overlap_area": 1.9118217828559812e-05, "product_id": "S2B_MSIL2A_20260929T064629_R020_T39QYA_20260929T105217"}, {"ndvi": 0.2226, "ndmi": -0.0263, "pixel_count": 2500, "aou_overlap_area": 2.183607264019691e-06, "product_id": "S2B_MSIL2A_20260929T064629_R020_T39QYA_20260929T105217"}, {"ndvi": 0.0668, "ndmi": -0.0898, "pixel_count": 2500, "aou_overlap_area": 2.183590201847689e-06, "product_id": "S2B_MSIL2A_20260929T064629_R020_T39QYA_20260929T105217"}], "sources": ["Copernicus Sentinel-2 L2A (ESA) via Microsoft Planetary Computer"], "coverage": {"assessable_cell_fraction": 1.0, "valid_area_fraction": 0.9999999481955474, "valid_area_fraction_basis": "overlap_times_clear_fraction_estimate", "valid_area_fraction_denominator": "aou_target_area", "clear_member_fraction": 1.0}, "ag_evidence": {"version": "activity_evidence_v2", "score_semantics": "vegetation_activity_heuristic_not_land_use_probability", "calibrated_probability": false, "land_use_status": "not_established_by_score", "inputs": {"ndvi": 0.21785, "ndmi": -0.027775, "month": 9, "n_clear_dates": 12, "n_dates_above_bare": 12}, "weights": {"ndvi_peak": 0.27, "persistence": 0.18, "ndmi": 0.2, "swir": 0.12, "phenology": 0.13, "texture": 0.1}, "features": {"ndvi_peak": 0.066404, "persistence": 1.0, "ndmi": 0.055563, "swir": 0.0, "phenology": 0.049803, "texture": 0.35}, "sources": {"ndvi_peak": "current_ndvi_transform", "ndmi": "current_ndmi_transform", "swir": "band_derived_swir", "phenology": "derived_ndvi_month", "persistence": "derived_clear_date_counts", "texture": "default_not_measured"}, "contributions_points": {"ndvi_peak": 1.792895, "persistence": 18.0, "ndmi": 1.11125, "swir": 0.0, "phenology": 0.647434, "texture": 3.5}, "boost_points": 0.0, "score": 25.05, "vegetation_features_at_floor": false, "correlated_floor_collapse": false, "correlated_ndvi_ndmi_weight": 0.6, "swir_coverage": {"aggregation": "equal_clear_member_mean", "clear_members": 4, "measured_members": 4, "complete": true, "band_sources": ["b11_b12"]}}}, "last_good_date": "2026-09-29", "evidence_level": "satellite_only", "product_stamp": "provisional_satellite_analytical_service", "najd_model_validation": "not_validated", "formula_ref": "SCIENCE_LOCKS_v0.4_phase1_2.md\u00a71-2 + SCIENCE_LOCKS_v0.4_aou_temporal_ledger.md + SCIENCE_LOCKS_v0.4_observation_integrity.md + SCIENCE_LOCKS_v0.4_post_integrity_evaluator.md + SCIENCE_LOCKS_v0.4_evaluator_deep_recheck.md + SCIENCE_LOCKS_v0.4_post29_evaluator_residuals.md", "date": "2026-09-29", "join_rule": "max_overlap_area", "temporal_evidence_sufficient": true, "temporal_evidence_ar": null, "temporal_evidence_en": null, "biotic_unknown_reason": null, "release_id": "20261003T151210Z-c940410c", "run_id": "20261003T151210Z-c940410c"}}, {"type": "Feature", "geometry": {"type": "Polygon", "coordinates": [[[53.87230159818977, 18.05636889143253], [53.87702022504436, 18.056298640884748], [53.87694673370069, 18.051785073714488], [53.872228226975444, 18.051855305526846], [53.87230159818977, 18.05636889143253]]]}, "properties": {"aou_id": "AOU-NJ-000007", "previous_ids": [], "first_seen_date": "2026-08-17", "last_seen_date": "2026-09-29", "active": true, "current_detection": "detected", "refresh_status": "refreshed", "observation_role": "current_observation", "agricultural_probability": 14.59, "ag_evidence": {"version": "activity_evidence_v2", "score_semantics": "vegetation_activity_heuristic_not_land_use_probability", "calibrated_probability": false, "land_use_status": "not_established_by_score", "inputs": {"ndvi": 0.1849, "ndmi": -0.04445, "month": 9, "n_clear_dates": 12, "n_dates_above_bare": 7}, "weights": {"ndvi_peak": 0.27, "persistence": 0.18, "ndmi": 0.2, "swir": 0.12, "phenology": 0.13, "texture": 0.1}, "features": {"ndvi_peak": 0.008596, "persistence": 0.583333, "ndmi": 0.013875, "swir": 0.0, "phenology": 0.006447, "texture": 0.35}, "sources": {"ndvi_peak": "current_ndvi_transform", "ndmi": "current_ndmi_transform", "swir": "band_derived_swir", "phenology": "derived_ndvi_month", "persistence": "derived_clear_date_counts", "texture": "default_not_measured"}, "contributions_points": {"ndvi_peak": 0.232105, "persistence": 10.5, "ndmi": 0.2775, "swir": 0.0, "phenology": 0.083816, "texture": 3.5}, "boost_points": 0.0, "score": 14.59, "vegetation_features_at_floor": false, "correlated_floor_collapse": false, "correlated_ndvi_ndmi_weight": 0.6, "swir_coverage": {"aggregation": "equal_clear_member_mean", "clear_members": 4, "measured_members": 4, "complete": true, "band_sources": ["b11_b12"]}}, "ag_class": "unlikely", "area_ha_est": 25.099, "ndvi": 0.1849, "ndmi": -0.0445, "ndre": null, "ndre_available": false, "ndre_status": "unavailable", "member_count": 2, "geometry_kind": "aou_segment", "aou_not_official_farm": true, "n_clear_dates": 12, "n_dates_above_bare": 7, "persistence_feature": 0.5833333333333334, "persistence_status": "multi_date", "persistence_estimated_from_window": false, "assessability": "assessable", "clear_member_count": 4, "clear_fraction": 1.0, "assessable_cell_fraction": 1.0, "valid_area_fraction": 0.9999999892424526, "stress_flags_recent_water": [true, true, true], "stress_flags_recent_vigor": [true, true, true], "water_stress_score": 75.09, "vigor_stress_score": 63.62, "alert": "bare", "possible_biotic_stress": false, "biotic_status": "not_flagged", "biotic_status_last_trusted": "not_flagged", "biotic_last_trusted_date": "2026-09-29", "valid_area_fraction_basis": "overlap_times_clear_fraction_estimate", "valid_area_fraction_denominator": "aou_target_area", "clear_fraction_missing": false, "aou_target_area": 2.1302770255522346e-05, "discovery_status": "established", "discovery_action": null, "match_iou": null, "aggregate_id": "AOU-NJ-000007|2026-09-29|20261003T151210Z-c940410c", "aou_date_aggregate": {"aggregate_id": "AOU-NJ-000007|2026-09-29|20261003T151210Z-c940410c", "aou_id": "AOU-NJ-000007", "date": "2026-09-29", "run_id": "20261003T151210Z-c940410c", "ndvi": 0.1849, "ndmi": -0.0445, "water_stress_score": 75.09, "vigor_stress_score": 63.62, "alert": "bare", "agricultural_probability": 14.59, "ag_class": "unlikely", "persistence_feature": 0.5833333333333334, "n_clear_dates": 12, "n_dates_above_bare": 7, "assessability": "assessable", "assessable_cell_fraction": 1.0, "valid_area_fraction": 0.9999999892424526, "clear_member_fraction": 1.0, "clear_member_count": 4, "member_count": 4, "observation_role": "current_observation", "biotic_status": "not_flagged", "possible_biotic_stress": false, "refresh_status": "refreshed", "accepted_cells": [{"ndvi": 0.0729, "ndmi": -0.089, "pixel_count": 2500, "aou_overlap_area": 1.0023888080299897e-12, "product_id": "S2B_MSIL2A_20260929T064629_R020_T39QYA_20260929T105217"}, {"ndvi": 0.267, "ndmi": -0.0369, "pixel_count": 2500, "aou_overlap_area": 1.911907943720427e-05, "product_id": "S2B_MSIL2A_20260929T064629_R020_T39QYA_20260929T105217"}, {"ndvi": 0.2964, "ndmi": 0.0215, "pixel_count": 2500, "aou_overlap_area": 1.0039479057991952e-12, "product_id": "S2B_MSIL2A_20260929T064629_R020_T39QYA_20260929T105217"}, {"ndvi": 0.1033, "ndmi": -0.0734, "pixel_count": 2500, "aou_overlap_area": 2.183688582815802e-06, "product_id": "S2B_MSIL2A_20260929T064629_R020_T39QYA_20260929T105217"}], "sources": ["Copernicus Sentinel-2 L2A (ESA) via Microsoft Planetary Computer"], "coverage": {"assessable_cell_fraction": 1.0, "valid_area_fraction": 0.9999999892424526, "valid_area_fraction_basis": "overlap_times_clear_fraction_estimate", "valid_area_fraction_denominator": "aou_target_area", "clear_member_fraction": 1.0}, "ag_evidence": {"version": "activity_evidence_v2", "score_semantics": "vegetation_activity_heuristic_not_land_use_probability", "calibrated_probability": false, "land_use_status": "not_established_by_score", "inputs": {"ndvi": 0.1849, "ndmi": -0.04445, "month": 9, "n_clear_dates": 12, "n_dates_above_bare": 7}, "weights": {"ndvi_peak": 0.27, "persistence": 0.18, "ndmi": 0.2, "swir": 0.12, "phenology": 0.13, "texture": 0.1}, "features": {"ndvi_peak": 0.008596, "persistence": 0.583333, "ndmi": 0.013875, "swir": 0.0, "phenology": 0.006447, "texture": 0.35}, "sources": {"ndvi_peak": "current_ndvi_transform", "ndmi": "current_ndmi_transform", "swir": "band_derived_swir", "phenology": "derived_ndvi_month", "persistence": "derived_clear_date_counts", "texture": "default_not_measured"}, "contributions_points": {"ndvi_peak": 0.232105, "persistence": 10.5, "ndmi": 0.2775, "swir": 0.0, "phenology": 0.083816, "texture": 3.5}, "boost_points": 0.0, "score": 14.59, "vegetation_features_at_floor": false, "correlated_floor_collapse": false, "correlated_ndvi_ndmi_weight": 0.6, "swir_coverage": {"aggregation": "equal_clear_member_mean", "clear_members": 4, "measured_members": 4, "complete": true, "band_sources": ["b11_b12"]}}}, "last_good_date": "2026-09-29", "evidence_level": "satellite_only", "product_stamp": "provisional_satellite_analytical_service", "najd_model_validation": "not_validated", "formula_ref": "SCIENCE_LOCKS_v0.4_phase1_2.md\u00a71-2 + SCIENCE_LOCKS_v0.4_aou_temporal_ledger.md + SCIENCE_LOCKS_v0.4_observation_integrity.md + SCIENCE_LOCKS_v0.4_post_integrity_evaluator.md + SCIENCE_LOCKS_v0.4_evaluator_deep_recheck.md + SCIENCE_LOCKS_v0.4_post29_evaluator_residuals.md", "date": "2026-09-29", "join_rule": "max_overlap_area", "temporal_evidence_sufficient": true, "temporal_evidence_ar": null, "temporal_evidence_en": null, "biotic_unknown_reason": null, "release_id": "20261003T151210Z-c940410c", "run_id": "20261003T151210Z-c940410c"}}, {"type": "Feature", "geometry": {"type": "Polygon", "coordinates": [[[53.75059548183187, 18.12135167230624], [53.75531634211395, 18.121284160100853], [53.755245686328365, 18.11677014902098], [53.75052494673285, 18.1168376432755], [53.75059548183187, 18.12135167230624]]]}, "properties": {"aou_id": "AOU-NJ-000008", "previous_ids": [], "first_seen_date": "2026-08-17", "last_seen_date": "2026-09-29", "active": true, "current_detection": "detected", "refresh_status": "refreshed", "observation_role": "current_observation", "agricultural_probability": 29.34, "ag_evidence": {"version": "activity_evidence_v2", "score_semantics": "vegetation_activity_heuristic_not_land_use_probability", "calibrated_probability": false, "land_use_status": "not_established_by_score", "inputs": {"ndvi": 0.26595, "ndmi": -0.00405, "month": 9, "n_clear_dates": 8, "n_dates_above_bare": 8}, "weights": {"ndvi_peak": 0.27, "persistence": 0.18, "ndmi": 0.2, "swir": 0.12, "phenology": 0.13, "texture": 0.1}, "features": {"ndvi_peak": 0.150789, "persistence": 1.0, "ndmi": 0.114875, "swir": 0.0, "phenology": 0.113092, "texture": 0.35}, "sources": {"ndvi_peak": "current_ndvi_transform", "ndmi": "current_ndmi_transform", "swir": "band_derived_swir", "phenology": "derived_ndvi_month", "persistence": "derived_clear_date_counts", "texture": "default_not_measured"}, "contributions_points": {"ndvi_peak": 4.071316, "persistence": 18.0, "ndmi": 2.2975, "swir": 0.0, "phenology": 1.470197, "texture": 3.5}, "boost_points": 0.0, "score": 29.34, "vegetation_features_at_floor": false, "correlated_floor_collapse": false, "correlated_ndvi_ndmi_weight": 0.6, "swir_coverage": {"aggregation": "equal_clear_member_mean", "clear_members": 2, "measured_members": 2, "complete": true, "band_sources": ["b11_b12"]}}, "ag_class": "unlikely", "area_ha_est": 25.104, "ndvi": 0.266, "ndmi": -0.004, "ndre": null, "ndre_available": false, "ndre_status": "unavailable", "member_count": 1, "geometry_kind": "aou_segment", "aou_not_official_farm": true, "n_clear_dates": 8, "n_dates_above_bare": 8, "persistence_feature": 1.0, "persistence_status": "multi_date", "persistence_estimated_from_window": false, "assessability": "assessable", "clear_member_count": 2, "clear_fraction": 1.0, "assessable_cell_fraction": 1.0, "valid_area_fraction": 0.9999998994031696, "stress_flags_recent_water": [true, true, true], "stress_flags_recent_vigor": [false, false, false], "water_stress_score": 58.61, "vigor_stress_score": 31.62, "alert": "healthy", "possible_biotic_stress": false, "biotic_status": "not_flagged", "biotic_status_last_trusted": "not_flagged", "biotic_last_trusted_date": "2026-09-29", "valid_area_fraction_basis": "overlap_times_clear_fraction_estimate", "valid_area_fraction_denominator": "aou_target_area", "clear_fraction_missing": false, "aou_target_area": 2.1314551021188743e-05, "discovery_status": "established", "discovery_action": null, "match_iou": null, "aggregate_id": "AOU-NJ-000008|2026-09-29|20261003T151210Z-c940410c", "aou_date_aggregate": {"aggregate_id": "AOU-NJ-000008|2026-09-29|20261003T151210Z-c940410c", "aou_id": "AOU-NJ-000008", "date": "2026-09-29", "run_id": "20261003T151210Z-c940410c", "ndvi": 0.266, "ndmi": -0.004, "water_stress_score": 58.61, "vigor_stress_score": 31.62, "alert": "healthy", "agricultural_probability": 29.34, "ag_class": "unlikely", "persistence_feature": 1.0, "n_clear_dates": 8, "n_dates_above_bare": 8, "assessability": "assessable", "assessable_cell_fraction": 1.0, "valid_area_fraction": 0.9999998994031696, "clear_member_fraction": 1.0, "clear_member_count": 2, "member_count": 2, "observation_role": "current_observation", "biotic_status": "not_flagged", "possible_biotic_stress": false, "refresh_status": "refreshed", "accepted_cells": [{"ndvi": 0.3522, "ndmi": 0.007, "pixel_count": 2500, "aou_overlap_area": 1.912965276807019e-05, "product_id": "S2B_MSIL2A_20260929T064629_R020_T39QYA_20260929T105217"}, {"ndvi": 0.1797, "ndmi": -0.0151, "pixel_count": 2500, "aou_overlap_area": 2.1848961089422766e-06, "product_id": "S2B_MSIL2A_20260929T064629_R020_T39QYA_20260929T105217"}], "sources": ["Copernicus Sentinel-2 L2A (ESA) via Microsoft Planetary Computer"], "coverage": {"assessable_cell_fraction": 1.0, "valid_area_fraction": 0.9999998994031696, "valid_area_fraction_basis": "overlap_times_clear_fraction_estimate", "valid_area_fraction_denominator": "aou_target_area", "clear_member_fraction": 1.0}, "ag_evidence": {"version": "activity_evidence_v2", "score_semantics": "vegetation_activity_heuristic_not_land_use_probability", "calibrated_probability": false, "land_use_status": "not_established_by_score", "inputs": {"ndvi": 0.26595, "ndmi": -0.00405, "month": 9, "n_clear_dates": 8, "n_dates_above_bare": 8}, "weights": {"ndvi_peak": 0.27, "persistence": 0.18, "ndmi": 0.2, "swir": 0.12, "phenology": 0.13, "texture": 0.1}, "features": {"ndvi_peak": 0.150789, "persistence": 1.0, "ndmi": 0.114875, "swir": 0.0, "phenology": 0.113092, "texture": 0.35}, "sources": {"ndvi_peak": "current_ndvi_transform", "ndmi": "current_ndmi_transform", "swir": "band_derived_swir", "phenology": "derived_ndvi_month", "persistence": "derived_clear_date_counts", "texture": "default_not_measured"}, "contributions_points": {"ndvi_peak": 4.071316, "persistence": 18.0, "ndmi": 2.2975, "swir": 0.0, "phenology": 1.470197, "texture": 3.5}, "boost_points": 0.0, "score": 29.34, "vegetation_features_at_floor": false, "correlated_floor_collapse": false, "correlated_ndvi_ndmi_weight": 0.6, "swir_coverage": {"aggregation": "equal_clear_member_mean", "clear_members": 2, "measured_members": 2, "complete": true, "band_sources": ["b11_b12"]}}}, "last_good_date": "2026-09-29", "evidence_level": "satellite_only", "product_stamp": "provisional_satellite_analytical_service", "najd_model_validation": "not_validated", "formula_ref": "SCIENCE_LOCKS_v0.4_phase1_2.md\u00a71-2 + SCIENCE_LOCKS_v0.4_aou_temporal_ledger.md + SCIENCE_LOCKS_v0.4_observation_integrity.md + SCIENCE_LOCKS_v0.4_post_integrity_evaluator.md + SCIENCE_LOCKS_v0.4_evaluator_deep_recheck.md + SCIENCE_LOCKS_v0.4_post29_evaluator_residuals.md", "date": "2026-09-29", "join_rule": "max_overlap_area", "temporal_evidence_sufficient": true, "temporal_evidence_ar": null, "temporal_evidence_en": null, "biotic_unknown_reason": null, "release_id": "20261003T151210Z-c940410c", "run_id": "20261003T151210Z-c940410c"}}, {"type": "Feature", "geometry": {"type": "Polygon", "coordinates": [[[53.79823404307884, 18.147754394380154], [53.802955420147825, 18.147685618301168], [53.802883431678026, 18.143171802753592], [53.79816217548228, 18.143240560569513], [53.79823404307884, 18.147754394380154]]]}, "properties": {"aou_id": "AOU-NJ-000009", "previous_ids": [], "first_seen_date": "2026-08-17", "last_seen_date": "2026-09-29", "active": true, "current_detection": "detected", "refresh_status": "refreshed", "observation_role": "current_observation", "agricultural_probability": 46.88, "ag_evidence": {"version": "activity_evidence_v2", "score_semantics": "vegetation_activity_heuristic_not_land_use_probability", "calibrated_probability": false, "land_use_status": "not_established_by_score", "inputs": {"ndvi": 0.4228, "ndmi": 0.1424, "month": 9, "n_clear_dates": 8, "n_dates_above_bare": 8}, "weights": {"ndvi_peak": 0.27, "persistence": 0.18, "ndmi": 0.2, "swir": 0.12, "phenology": 0.13, "texture": 0.1}, "features": {"ndvi_peak": 0.425965, "persistence": 1.0, "ndmi": 0.481, "swir": 0.009, "phenology": 0.319474, "texture": 0.35}, "sources": {"ndvi_peak": "current_ndvi_transform", "ndmi": "current_ndmi_transform", "swir": "band_derived_swir", "phenology": "derived_ndvi_month", "persistence": "derived_clear_date_counts", "texture": "default_not_measured"}, "contributions_points": {"ndvi_peak": 11.501053, "persistence": 18.0, "ndmi": 9.62, "swir": 0.108, "phenology": 4.153158, "texture": 3.5}, "boost_points": 0.0, "score": 46.88, "vegetation_features_at_floor": false, "correlated_floor_collapse": false, "correlated_ndvi_ndmi_weight": 0.6, "swir_coverage": {"aggregation": "equal_clear_member_mean", "clear_members": 2, "measured_members": 2, "complete": true, "band_sources": ["b11_b12"]}}, "ag_class": "possible", "area_ha_est": 25.102, "ndvi": 0.4228, "ndmi": 0.1424, "ndre": null, "ndre_available": false, "ndre_status": "unavailable", "member_count": 2, "geometry_kind": "aou_segment", "aou_not_official_farm": true, "n_clear_dates": 8, "n_dates_above_bare": 8, "persistence_feature": 1.0, "persistence_status": "multi_date", "persistence_estimated_from_window": false, "assessability": "assessable", "clear_member_count": 2, "clear_fraction": 1.0, "assessable_cell_fraction": 1.0, "valid_area_fraction": 0.9999998976228828, "stress_flags_recent_water": [false, false, false], "stress_flags_recent_vigor": [false, false, false], "water_stress_score": 17.0, "vigor_stress_score": 17.0, "alert": "healthy", "possible_biotic_stress": false, "biotic_status": "not_flagged", "biotic_status_last_trusted": "not_flagged", "biotic_last_trusted_date": "2026-09-29", "valid_area_fraction_basis": "overlap_times_clear_fraction_estimate", "valid_area_fraction_denominator": "aou_target_area", "clear_fraction_missing": false, "aou_target_area": 2.1316141804322676e-05, "discovery_status": "established", "discovery_action": null, "match_iou": null, "aggregate_id": "AOU-NJ-000009|2026-09-29|20261003T151210Z-c940410c", "aou_date_aggregate": {"aggregate_id": "AOU-NJ-000009|2026-09-29|20261003T151210Z-c940410c", "aou_id": "AOU-NJ-000009", "date": "2026-09-29", "run_id": "20261003T151210Z-c940410c", "ndvi": 0.4228, "ndmi": 0.1424, "water_stress_score": 17.0, "vigor_stress_score": 17.0, "alert": "healthy", "agricultural_probability": 46.88, "ag_class": "possible", "persistence_feature": 1.0, "n_clear_dates": 8, "n_dates_above_bare": 8, "assessability": "assessable", "assessable_cell_fraction": 1.0, "valid_area_fraction": 0.9999998976228828, "clear_member_fraction": 1.0, "clear_member_count": 2, "member_count": 2, "observation_role": "current_observation", "biotic_status": "not_flagged", "possible_biotic_stress": false, "refresh_status": "refreshed", "accepted_cells": [{"ndvi": 0.4547, "ndmi": 0.1497, "pixel_count": 2500, "aou_overlap_area": 1.913108048780037e-05, "product_id": "S2B_MSIL2A_20260929T064629_R020_T39QYA_20260929T105217"}, {"ndvi": 0.3909, "ndmi": 0.1351, "pixel_count": 2500, "aou_overlap_area": 2.1850591342371576e-06, "product_id": "S2B_MSIL2A_20260929T064629_R020_T39QYA_20260929T105217"}], "sources": ["Copernicus Sentinel-2 L2A (ESA) via Microsoft Planetary Computer"], "coverage": {"assessable_cell_fraction": 1.0, "valid_area_fraction": 0.9999998976228828, "valid_area_fraction_basis": "overlap_times_clear_fraction_estimate", "valid_area_fraction_denominator": "aou_target_area", "clear_member_fraction": 1.0}, "ag_evidence": {"version": "activity_evidence_v2", "score_semantics": "vegetation_activity_heuristic_not_land_use_probability", "calibrated_probability": false, "land_use_status": "not_established_by_score", "inputs": {"ndvi": 0.4228, "ndmi": 0.1424, "month": 9, "n_clear_dates": 8, "n_dates_above_bare": 8}, "weights": {"ndvi_peak": 0.27, "persistence": 0.18, "ndmi": 0.2, "swir": 0.12, "phenology": 0.13, "texture": 0.1}, "features": {"ndvi_peak": 0.425965, "persistence": 1.0, "ndmi": 0.481, "swir": 0.009, "phenology": 0.319474, "texture": 0.35}, "sources": {"ndvi_peak": "current_ndvi_transform", "ndmi": "current_ndmi_transform", "swir": "band_derived_swir", "phenology": "derived_ndvi_month", "persistence": "derived_clear_date_counts", "texture": "default_not_measured"}, "contributions_points": {"ndvi_peak": 11.501053, "persistence": 18.0, "ndmi": 9.62, "swir": 0.108, "phenology": 4.153158, "texture": 3.5}, "boost_points": 0.0, "score": 46.88, "vegetation_features_at_floor": false, "correlated_floor_collapse": false, "correlated_ndvi_ndmi_weight": 0.6, "swir_coverage": {"aggregation": "equal_clear_member_mean", "clear_members": 2, "measured_members": 2, "complete": true, "band_sources": ["b11_b12"]}}}, "last_good_date": "2026-09-29", "evidence_level": "satellite_only", "product_stamp": "provisional_satellite_analytical_service", "najd_model_validation": "not_validated", "formula_ref": "SCIENCE_LOCKS_v0.4_phase1_2.md\u00a71-2 + SCIENCE_LOCKS_v0.4_aou_temporal_ledger.md + SCIENCE_LOCKS_v0.4_observation_integrity.md + SCIENCE_LOCKS_v0.4_post_integrity_evaluator.md + SCIENCE_LOCKS_v0.4_evaluator_deep_recheck.md + SCIENCE_LOCKS_v0.4_post29_evaluator_residuals.md", "date": "2026-09-29", "join_rule": "max_overlap_area", "temporal_evidence_sufficient": true, "temporal_evidence_ar": null, "temporal_evidence_en": null, "biotic_unknown_reason": null, "release_id": "20261003T151210Z-c940410c", "run_id": "20261003T151210Z-c940410c"}}], "release_id": "20261003T151210Z-c940410c", "run_id": "20261003T151210Z-c940410c"}