{
  "type": "FeatureCollection",
  "name": "dhofar_restoration_recommended_sites_mvp",
  "properties": {
    "note": "Mountain STATUS markers only. MPI product_kind is onset_window_dry_mpi_provisional or insufficient — not post-khareef persistence. Timing deferred. Not seeding recommendations. Seeding-rec Hold until post-khareef MPI 2026-09-15–2026-10-31 + Agrofostery SHA.",
    "version": "mvp-1-status",
    "product_kind": "onset_window_dry_mpi_provisional",
    "timing": "deferred",
    "seeding_recommendation": "hold",
    "partner_surface": "status_only"
  },
  "features": [
    {
      "type": "Feature",
      "geometry": {
        "type": "Point",
        "coordinates": [
          54.12,
          17.18
        ]
      },
      "properties": {
        "id": "JR-00871",
        "name_en": "Jabal Qara — fog escarpment niche",
        "name_ar": "جبل القرا — موطئ ضباب على المنحدر",
        "region": "Qara",
        "suitability": null,
        "confidence": null,
        "mpi_class": "onset_provisional_or_insufficient",
        "action": null,
        "species": "Terminalia dhofarica",
        "species_note": "Fog catalog list only — not a plant-here recommendation while seeding-rec Hold.",
        "window": null,
        "why": [
          "Status marker only — onset-window dry MPI provisional (not post-khareef persistence).",
          "Seeding recommendations Hold until post-khareef MPI window + science Approve.",
          "Fog-belt species listed elsewhere as catalog only — not a plant-here card."
        ],
        "illustrative_stub": false,
        "product_kind": "onset_window_dry_mpi_provisional",
        "timing": "deferred",
        "seeding_recommendation": "hold"
      }
    },
    {
      "type": "Feature",
      "geometry": {
        "type": "Point",
        "coordinates": [
          54.05,
          17.25
        ]
      },
      "properties": {
        "id": "JR-00842",
        "name_en": "Jabal Qara — north ridge regeneration",
        "name_ar": "جبل القرا — تجدد على الحافة الشمالية",
        "region": "Qara",
        "suitability": null,
        "confidence": null,
        "mpi_class": "onset_provisional_or_insufficient",
        "action": null,
        "species": "Terminalia dhofarica",
        "species_note": "Fog catalog list only — not a plant-here recommendation while seeding-rec Hold.",
        "window": null,
        "why": [
          "Status marker only — onset-window dry MPI provisional (not post-khareef persistence).",
          "Seeding recommendations Hold until post-khareef MPI window + science Approve.",
          "Fog-belt species listed elsewhere as catalog only — not a plant-here card."
        ],
        "illustrative_stub": false,
        "product_kind": "onset_window_dry_mpi_provisional",
        "timing": "deferred",
        "seeding_recommendation": "hold"
      }
    },
    {
      "type": "Feature",
      "geometry": {
        "type": "Point",
        "coordinates": [
          54.78,
          17.12
        ]
      },
      "properties": {
        "id": "JR-00915",
        "name_en": "Jabal Samhan — monsoon escarpment",
        "name_ar": "جبل سمحان — منحدر الخريف",
        "region": "Samhan",
        "suitability": null,
        "confidence": null,
        "mpi_class": "onset_provisional_or_insufficient",
        "action": null,
        "species": "Terminalia dhofarica",
        "species_note": "Fog catalog list only — not a plant-here recommendation while seeding-rec Hold.",
        "window": null,
        "why": [
          "Status marker only — onset-window dry MPI provisional (not post-khareef persistence).",
          "Seeding recommendations Hold until post-khareef MPI window + science Approve.",
          "Fog-belt species listed elsewhere as catalog only — not a plant-here card."
        ],
        "illustrative_stub": false,
        "product_kind": "onset_window_dry_mpi_provisional",
        "timing": "deferred",
        "seeding_recommendation": "hold"
      }
    },
    {
      "type": "Feature",
      "geometry": {
        "type": "Point",
        "coordinates": [
          54.85,
          17.08
        ]
      },
      "properties": {
        "id": "JR-00928",
        "name_en": "Jabal Samhan — eastern spur (enrichment sample)",
        "name_ar": "جبل سمحان — نتوء شرقي (عيّنة إثراء)",
        "region": "Samhan",
        "suitability": null,
        "confidence": null,
        "mpi_class": "onset_provisional_or_insufficient",
        "action": null,
        "species": "Terminalia dhofarica",
        "species_note": "Fog catalog list only — not a plant-here recommendation while seeding-rec Hold.",
        "window": null,
        "why": [
          "Status marker only — onset-window dry MPI provisional (not post-khareef persistence).",
          "Seeding recommendations Hold until post-khareef MPI window + science Approve.",
          "Fog-belt species listed elsewhere as catalog only — not a plant-here card."
        ],
        "illustrative_stub": false,
        "product_kind": "onset_window_dry_mpi_provisional",
        "timing": "deferred",
        "seeding_recommendation": "hold"
      }
    },
    {
      "type": "Feature",
      "geometry": {
        "type": "Point",
        "coordinates": [
          53.62,
          16.92
        ]
      },
      "properties": {
        "id": "JR-00755",
        "name_en": "Jabal Qamar — western fog pocket",
        "name_ar": "جبل القمر — جيب ضباب غربي",
        "region": "Qamar",
        "suitability": null,
        "confidence": null,
        "mpi_class": "onset_provisional_or_insufficient",
        "action": null,
        "species": "Terminalia dhofarica",
        "species_note": "Fog catalog list only — not a plant-here recommendation while seeding-rec Hold.",
        "window": null,
        "why": [
          "Status marker only — onset-window dry MPI provisional (not post-khareef persistence).",
          "Seeding recommendations Hold until post-khareef MPI window + science Approve.",
          "Fog-belt species listed elsewhere as catalog only — not a plant-here card."
        ],
        "illustrative_stub": false,
        "product_kind": "onset_window_dry_mpi_provisional",
        "timing": "deferred",
        "seeding_recommendation": "hold"
      }
    },
    {
      "type": "Feature",
      "geometry": {
        "type": "Point",
        "coordinates": [
          53.72,
          16.98
        ]
      },
      "properties": {
        "id": "JR-00768",
        "name_en": "Jabal Qamar — steep runoff corridor",
        "name_ar": "جبل القمر — ممر جريان شديد",
        "region": "Qamar",
        "suitability": null,
        "confidence": null,
        "mpi_class": "onset_provisional_or_insufficient",
        "action": null,
        "species": "—",
        "species_note": "Fog catalog list only — not a plant-here recommendation while seeding-rec Hold.",
        "window": null,
        "why": [
          "Status marker only — onset-window dry MPI provisional (not post-khareef persistence).",
          "Seeding recommendations Hold until post-khareef MPI window + science Approve.",
          "Fog-belt species listed elsewhere as catalog only — not a plant-here card."
        ],
        "illustrative_stub": false,
        "product_kind": "onset_window_dry_mpi_provisional",
        "timing": "deferred",
        "seeding_recommendation": "hold"
      }
    },
    {
      "type": "Feature",
      "geometry": {
        "type": "Point",
        "coordinates": [
          54.69,
          17.02
        ]
      },
      "properties": {
        "id": "JR-01002",
        "name_en": "Mirbat foothills — coastal moisture fringe",
        "name_ar": "سفوح مرباط — هامش رطوبة ساحلي",
        "region": "Mirbat",
        "suitability": null,
        "confidence": null,
        "mpi_class": "onset_provisional_or_insufficient",
        "action": null,
        "species": "Terminalia dhofarica",
        "species_note": "Fog catalog list only — not a plant-here recommendation while seeding-rec Hold.",
        "window": null,
        "why": [
          "Status marker only — onset-window dry MPI provisional (not post-khareef persistence).",
          "Seeding recommendations Hold until post-khareef MPI window + science Approve.",
          "Fog-belt species listed elsewhere as catalog only — not a plant-here card."
        ],
        "illustrative_stub": false,
        "product_kind": "onset_window_dry_mpi_provisional",
        "timing": "deferred",
        "seeding_recommendation": "hold"
      }
    },
    {
      "type": "Feature",
      "geometry": {
        "type": "Point",
        "coordinates": [
          53.77,
          16.88
        ]
      },
      "properties": {
        "id": "JR-01041",
        "name_en": "Mughsayl — western coastal foothill",
        "name_ar": "المغسيل — سفح ساحلي غربي",
        "region": "Mughsayl",
        "suitability": null,
        "confidence": null,
        "mpi_class": "onset_provisional_or_insufficient",
        "action": null,
        "species": "Terminalia dhofarica",
        "species_note": "Fog catalog list only — not a plant-here recommendation while seeding-rec Hold.",
        "window": null,
        "why": [
          "Status marker only — onset-window dry MPI provisional (not post-khareef persistence).",
          "Seeding recommendations Hold until post-khareef MPI window + science Approve.",
          "Fog-belt species listed elsewhere as catalog only — not a plant-here card."
        ],
        "illustrative_stub": false,
        "product_kind": "onset_window_dry_mpi_provisional",
        "timing": "deferred",
        "seeding_recommendation": "hold"
      }
    }
  ]
}
