{"type": "FeatureCollection", "name": "aou_registry", "properties": {"formula_ref": "SCIENCE_LOCKS_v0.4_phase1_2.md\u00a72 + SCIENCE_LOCKS_v0.4_aou_temporal_ledger.md + SCIENCE_LOCKS_v0.4_observation_integrity.md + SCIENCE_LOCKS_v0.4_post_integrity_evaluator.md + SCIENCE_LOCKS_v0.4_evaluator_deep_recheck.md", "aou_not_official_farm": true, "count": 9, "product_stamp": "provisional_satellite_analytical_service", "najd_model_validation": "not_validated", "active_means": "registry_identity_only", "current_detection_enum": ["detected", "weak", "not_detected"], "join_rule": "max_overlap_area", "run_id": "20260919T211515Z", "last_updated": "2026-09-19T21:15:22.733613+00:00", "release_id": "20260919T211515Z"}, "features": [{"type": "Feature", "geometry": {"type": "Polygon", "coordinates": [[[53.70234795493869, 18.054307093365658], [53.70241699983863, 18.058821333333018], [53.7071363777756, 18.058755222593653], [53.70706721265756, 18.054241000258138], [53.70234795493869, 18.054307093365658]]]}, "properties": {"aou_id": "AOU-NJ-000001", "previous_ids": [], "first_seen_date": "2026-09-06", "last_seen_date": "2026-09-06", "active": true, "current_detection": "detected", "refresh_status": "unassessable_coverage", "observation_role": "retained_last_good", "agricultural_probability": 58.82, "ag_class": "unassessable", "area_ha_est": 25.106, "ndvi": 0.5868, "ndmi": 0.1688, "ndre": null, "ndre_available": false, "ndre_status": "unavailable", "member_count": 1, "geometry_kind": "aou_segment", "aou_not_official_farm": true, "n_clear_dates": 1, "n_dates_above_bare": 0, "persistence_feature": null, "persistence_status": "single_date_insufficient", "persistence_estimated_from_window": false, "assessability": "unassessable", "clear_member_count": 1, "clear_fraction": 1.0, "assessable_cell_fraction": 1.0, "valid_area_fraction": 0.0, "stress_flags_recent_water": [], "stress_flags_recent_vigor": [], "water_stress_score": 18.0, "vigor_stress_score": 18.0, "alert": "healthy", "possible_biotic_stress": false, "biotic_status": "unknown", "biotic_status_last_trusted": "unknown", "biotic_last_trusted_date": "2026-09-06", "valid_area_fraction_basis": "clear_pixels_in_aou", "valid_area_fraction_denominator": "aou_target_area", "clear_fraction_missing": true, "aou_target_area": 2.1308659526346988e-05, "discovery_status": "provisional_new", "discovery_action": null, "match_iou": null, "aggregate_id": "AOU-NJ-000001|2026-09-06|20260919T211515Z", "aou_date_aggregate": {"aggregate_id": "AOU-NJ-000001|2026-09-06|20260919T211515Z", "aou_id": "AOU-NJ-000001", "date": "2026-09-06", "run_id": "20260919T211515Z", "ndvi": 0.5868, "ndmi": 0.1688, "water_stress_score": 18.0, "vigor_stress_score": 18.0, "alert": "healthy", "agricultural_probability": 58.82, "ag_class": "unassessable", "persistence_feature": null, "n_clear_dates": 0, "n_dates_above_bare": 0, "assessability": "unassessable", "assessable_cell_fraction": 1.0, "valid_area_fraction": 0.0, "clear_member_fraction": 1.0, "clear_member_count": 1, "member_count": 1, "observation_role": "retained_last_good", "biotic_status": "unknown", "possible_biotic_stress": false, "refresh_status": "unassessable_coverage", "accepted_cells": [{"ndvi": 0.5868, "ndmi": 0.1688, "pixel_count": 2500, "aou_overlap_area": 2.1308659526346988e-05, "product_id": "S2A_MSIL2A_20260906T070431_R020_T39QYA_20260906T093909"}], "sources": ["Copernicus Sentinel-2 L2A (ESA) via Microsoft Planetary Computer"], "coverage": {"assessable_cell_fraction": 1.0, "valid_area_fraction": 0.0, "valid_area_fraction_basis": "clear_pixels_in_aou", "valid_area_fraction_denominator": "aou_target_area", "clear_member_fraction": 1.0}, "last_good_date": "2026-09-06"}, "last_good_date": "2026-09-06", "evidence_level": "satellite_only", "product_stamp": "provisional_satellite_analytical_service", "najd_model_validation": "not_validated", "formula_ref": "SCIENCE_LOCKS_v0.4_phase1_2.md\u00a71-2 + SCIENCE_LOCKS_v0.4_aou_temporal_ledger.md + SCIENCE_LOCKS_v0.4_observation_integrity.md + SCIENCE_LOCKS_v0.4_post_integrity_evaluator.md + SCIENCE_LOCKS_v0.4_evaluator_deep_recheck.md + SCIENCE_LOCKS_v0.4_post29_evaluator_residuals.md", "date": "2026-09-06", "join_rule": "max_overlap_area", "temporal_evidence_sufficient": false, "temporal_evidence_ar": "\u0623\u062f\u0644\u0629 \u0632\u0645\u0646\u064a\u0629 \u063a\u064a\u0631 \u0643\u0627\u0641\u064a\u0629", "temporal_evidence_en": "Insufficient temporal evidence", "biotic_unknown_reason": "insufficient_temporal_evidence", "release_id": "20260919T211515Z", "run_id": "20260919T211515Z"}}, {"type": "Feature", "geometry": {"type": "Polygon", "coordinates": [[[53.73629245197536, 18.11252534848183], [53.73636260450939, 18.117039433556084], [53.74108340578815, 18.11697228554525], [53.74115369950671, 18.121486350385673], [53.745874600951055, 18.12141906906858], [53.74580418654105, 18.116905022117656], [53.74573379269212, 18.11239097278996], [53.741013132595455, 18.112458218328936], [53.7409428799262, 18.107944148737268], [53.73622231992956, 18.108011261033113], [53.73629245197536, 18.11252534848183]]]}, "properties": {"aou_id": "AOU-NJ-000002", "previous_ids": [], "first_seen_date": "2026-09-06", "last_seen_date": "2026-09-06", "active": true, "current_detection": "detected", "refresh_status": "unassessable_coverage", "observation_role": "retained_last_good", "agricultural_probability": 54.53, "ag_class": "unassessable", "area_ha_est": 100.416, "ndvi": 0.5572, "ndmi": 0.1489, "ndre": null, "ndre_available": false, "ndre_status": "unavailable", "member_count": 4, "geometry_kind": "aou_segment", "aou_not_official_farm": true, "n_clear_dates": 1, "n_dates_above_bare": 0, "persistence_feature": null, "persistence_status": "single_date_insufficient", "persistence_estimated_from_window": false, "assessability": "unassessable", "clear_member_count": 4, "clear_fraction": 1.0, "assessable_cell_fraction": 1.0, "valid_area_fraction": 0.0, "stress_flags_recent_water": [], "stress_flags_recent_vigor": [], "water_stress_score": 18.0, "vigor_stress_score": 18.0, "alert": "healthy", "possible_biotic_stress": false, "biotic_status": "unknown", "biotic_status_last_trusted": "unknown", "biotic_last_trusted_date": "2026-09-06", "valid_area_fraction_basis": "clear_pixels_in_aou", "valid_area_fraction_denominator": "aou_target_area", "clear_fraction_missing": true, "aou_target_area": 8.525767107452469e-05, "discovery_status": "provisional_new", "discovery_action": null, "match_iou": null, "aggregate_id": "AOU-NJ-000002|2026-09-06|20260919T211515Z", "aou_date_aggregate": {"aggregate_id": "AOU-NJ-000002|2026-09-06|20260919T211515Z", "aou_id": "AOU-NJ-000002", "date": "2026-09-06", "run_id": "20260919T211515Z", "ndvi": 0.5572, "ndmi": 0.1489, "water_stress_score": 18.0, "vigor_stress_score": 18.0, "alert": "healthy", "agricultural_probability": 54.53, "ag_class": "unassessable", "persistence_feature": null, "n_clear_dates": 0, "n_dates_above_bare": 0, "assessability": "unassessable", "assessable_cell_fraction": 1.0, "valid_area_fraction": 0.0, "clear_member_fraction": 1.0, "clear_member_count": 4, "member_count": 4, "observation_role": "retained_last_good", "biotic_status": "unknown", "possible_biotic_stress": false, "refresh_status": "unassessable_coverage", "accepted_cells": [{"ndvi": 0.5823, "ndmi": 0.1526, "pixel_count": 2500, "aou_overlap_area": 2.131487347857857e-05, "product_id": "S2A_MSIL2A_20260906T070431_R020_T39QYA_20260906T093909"}, {"ndvi": 0.5269, "ndmi": 0.1558, "pixel_count": 2500, "aou_overlap_area": 2.1314498135063688e-05, "product_id": "S2A_MSIL2A_20260906T070431_R020_T39QYA_20260906T093909"}, {"ndvi": 0.6085, "ndmi": 0.1948, "pixel_count": 2500, "aou_overlap_area": 2.131433732790695e-05, "product_id": "S2A_MSIL2A_20260906T070431_R020_T39QYA_20260906T093909"}, {"ndvi": 0.5109, "ndmi": 0.0923, "pixel_count": 2500, "aou_overlap_area": 2.1313962132975484e-05, "product_id": "S2A_MSIL2A_20260906T070431_R020_T39QYA_20260906T093909"}], "sources": ["Copernicus Sentinel-2 L2A (ESA) via Microsoft Planetary Computer"], "coverage": {"assessable_cell_fraction": 1.0, "valid_area_fraction": 0.0, "valid_area_fraction_basis": "clear_pixels_in_aou", "valid_area_fraction_denominator": "aou_target_area", "clear_member_fraction": 1.0}, "last_good_date": "2026-09-06"}, "last_good_date": "2026-09-06", "evidence_level": "satellite_only", "product_stamp": "provisional_satellite_analytical_service", "najd_model_validation": "not_validated", "formula_ref": "SCIENCE_LOCKS_v0.4_phase1_2.md\u00a71-2 + SCIENCE_LOCKS_v0.4_aou_temporal_ledger.md + SCIENCE_LOCKS_v0.4_observation_integrity.md + SCIENCE_LOCKS_v0.4_post_integrity_evaluator.md + SCIENCE_LOCKS_v0.4_evaluator_deep_recheck.md + SCIENCE_LOCKS_v0.4_post29_evaluator_residuals.md", "date": "2026-09-06", "join_rule": "max_overlap_area", "temporal_evidence_sufficient": false, "temporal_evidence_ar": "\u0623\u062f\u0644\u0629 \u0632\u0645\u0646\u064a\u0629 \u063a\u064a\u0631 \u0643\u0627\u0641\u064a\u0629", "temporal_evidence_en": "Insufficient temporal evidence", "biotic_unknown_reason": "insufficient_temporal_evidence", "release_id": "20260919T211515Z", "run_id": "20260919T211515Z"}}, {"type": "Feature", "geometry": {"type": "Polygon", "coordinates": [[[53.741646330465564, 18.153084737698844], [53.74636807773636, 18.15301733113047], [53.746297519330454, 18.14850330083195], [53.746226981502716, 18.1439892681529], [53.741505476072795, 18.144056638930774], [53.741575892997716, 18.148570689504627], [53.741646330465564, 18.153084737698844]]]}, "properties": {"aou_id": "AOU-NJ-000003", "previous_ids": [], "first_seen_date": "2026-09-06", "last_seen_date": "2026-09-06", "active": true, "current_detection": "detected", "refresh_status": "unassessable_coverage", "observation_role": "retained_last_good", "agricultural_probability": 62.29, "ag_class": "unassessable", "area_ha_est": 50.208, "ndvi": 0.5997, "ndmi": 0.1977, "ndre": null, "ndre_available": false, "ndre_status": "unavailable", "member_count": 2, "geometry_kind": "aou_segment", "aou_not_official_farm": true, "n_clear_dates": 1, "n_dates_above_bare": 0, "persistence_feature": null, "persistence_status": "single_date_insufficient", "persistence_estimated_from_window": false, "assessability": "unassessable", "clear_member_count": 2, "clear_fraction": 1.0, "assessable_cell_fraction": 1.0, "valid_area_fraction": 0.0, "stress_flags_recent_water": [], "stress_flags_recent_vigor": [], "water_stress_score": 18.0, "vigor_stress_score": 18.0, "alert": "healthy", "possible_biotic_stress": false, "biotic_status": "unknown", "biotic_status_last_trusted": "unknown", "biotic_last_trusted_date": "2026-09-06", "valid_area_fraction_basis": "clear_pixels_in_aou", "valid_area_fraction_denominator": "aou_target_area", "clear_fraction_missing": true, "aou_target_area": 4.2636724602053994e-05, "discovery_status": "provisional_new", "discovery_action": null, "match_iou": null, "aggregate_id": "AOU-NJ-000003|2026-09-06|20260919T211515Z", "aou_date_aggregate": {"aggregate_id": "AOU-NJ-000003|2026-09-06|20260919T211515Z", "aou_id": "AOU-NJ-000003", "date": "2026-09-06", "run_id": "20260919T211515Z", "ndvi": 0.5997, "ndmi": 0.1977, "water_stress_score": 18.0, "vigor_stress_score": 18.0, "alert": "healthy", "agricultural_probability": 62.29, "ag_class": "unassessable", "persistence_feature": null, "n_clear_dates": 0, "n_dates_above_bare": 0, "assessability": "unassessable", "assessable_cell_fraction": 1.0, "valid_area_fraction": 0.0, "clear_member_fraction": 1.0, "clear_member_count": 2, "member_count": 2, "observation_role": "retained_last_good", "biotic_status": "unknown", "possible_biotic_stress": false, "refresh_status": "unassessable_coverage", "accepted_cells": [{"ndvi": 0.638, "ndmi": 0.2249, "pixel_count": 2500, "aou_overlap_area": 2.131863092544285e-05, "product_id": "S2A_MSIL2A_20260906T070431_R020_T39QYA_20260906T093909"}, {"ndvi": 0.5613, "ndmi": 0.1706, "pixel_count": 2500, "aou_overlap_area": 2.1318093676611137e-05, "product_id": "S2A_MSIL2A_20260906T070431_R020_T39QYA_20260906T093909"}], "sources": ["Copernicus Sentinel-2 L2A (ESA) via Microsoft Planetary Computer"], "coverage": {"assessable_cell_fraction": 1.0, "valid_area_fraction": 0.0, "valid_area_fraction_basis": "clear_pixels_in_aou", "valid_area_fraction_denominator": "aou_target_area", "clear_member_fraction": 1.0}, "last_good_date": "2026-09-06"}, "last_good_date": "2026-09-06", "evidence_level": "satellite_only", "product_stamp": "provisional_satellite_analytical_service", "najd_model_validation": "not_validated", "formula_ref": "SCIENCE_LOCKS_v0.4_phase1_2.md\u00a71-2 + SCIENCE_LOCKS_v0.4_aou_temporal_ledger.md + SCIENCE_LOCKS_v0.4_observation_integrity.md + SCIENCE_LOCKS_v0.4_post_integrity_evaluator.md + SCIENCE_LOCKS_v0.4_evaluator_deep_recheck.md + SCIENCE_LOCKS_v0.4_post29_evaluator_residuals.md", "date": "2026-09-06", "join_rule": "max_overlap_area", "temporal_evidence_sufficient": false, "temporal_evidence_ar": "\u0623\u062f\u0644\u0629 \u0632\u0645\u0646\u064a\u0629 \u063a\u064a\u0631 \u0643\u0627\u0641\u064a\u0629", "temporal_evidence_en": "Insufficient temporal evidence", "biotic_unknown_reason": "insufficient_temporal_evidence", "release_id": "20260919T211515Z", "run_id": "20260919T211515Z"}}, {"type": "Feature", "geometry": {"type": "Polygon", "coordinates": [[[53.90953014024016, 18.02420957194014], [53.90960434191477, 18.028723021502117], [53.91432207555026, 18.028651965263133], [53.91424775397743, 18.02413853467612], [53.90953014024016, 18.02420957194014]]]}, "properties": {"aou_id": "AOU-NJ-000004", "previous_ids": [], "first_seen_date": "2026-09-06", "last_seen_date": "2026-09-06", "active": true, "current_detection": "detected", "refresh_status": "unassessable_coverage", "observation_role": "retained_last_good", "agricultural_probability": 47.75, "ag_class": "unassessable", "area_ha_est": 25.098, "ndvi": 0.5199, "ndmi": 0.1063, "ndre": null, "ndre_available": false, "ndre_status": "unavailable", "member_count": 1, "geometry_kind": "aou_segment", "aou_not_official_farm": true, "n_clear_dates": 1, "n_dates_above_bare": 0, "persistence_feature": null, "persistence_status": "single_date_insufficient", "persistence_estimated_from_window": false, "assessability": "unassessable", "clear_member_count": 1, "clear_fraction": 1.0, "assessable_cell_fraction": 1.0, "valid_area_fraction": 0.0, "stress_flags_recent_water": [], "stress_flags_recent_vigor": [], "water_stress_score": 18.0, "vigor_stress_score": 18.0, "alert": "healthy", "possible_biotic_stress": false, "biotic_status": "unknown", "biotic_status_last_trusted": "unknown", "biotic_last_trusted_date": "2026-09-06", "valid_area_fraction_basis": "clear_pixels_in_aou", "valid_area_fraction_denominator": "aou_target_area", "clear_fraction_missing": true, "aou_target_area": 2.129821352162162e-05, "discovery_status": "provisional_new", "discovery_action": null, "match_iou": null, "aggregate_id": "AOU-NJ-000004|2026-09-06|20260919T211515Z", "aou_date_aggregate": {"aggregate_id": "AOU-NJ-000004|2026-09-06|20260919T211515Z", "aou_id": "AOU-NJ-000004", "date": "2026-09-06", "run_id": "20260919T211515Z", "ndvi": 0.5199, "ndmi": 0.1063, "water_stress_score": 18.0, "vigor_stress_score": 18.0, "alert": "healthy", "agricultural_probability": 47.75, "ag_class": "unassessable", "persistence_feature": null, "n_clear_dates": 0, "n_dates_above_bare": 0, "assessability": "unassessable", "assessable_cell_fraction": 1.0, "valid_area_fraction": 0.0, "clear_member_fraction": 1.0, "clear_member_count": 1, "member_count": 1, "observation_role": "retained_last_good", "biotic_status": "unknown", "possible_biotic_stress": false, "refresh_status": "unassessable_coverage", "accepted_cells": [{"ndvi": 0.5199, "ndmi": 0.1063, "pixel_count": 2500, "aou_overlap_area": 2.1298213521621623e-05, "product_id": "S2A_MSIL2A_20260906T070431_R020_T39QYA_20260906T093909"}], "sources": ["Copernicus Sentinel-2 L2A (ESA) via Microsoft Planetary Computer"], "coverage": {"assessable_cell_fraction": 1.0, "valid_area_fraction": 0.0, "valid_area_fraction_basis": "clear_pixels_in_aou", "valid_area_fraction_denominator": "aou_target_area", "clear_member_fraction": 1.0}, "last_good_date": "2026-09-06"}, "last_good_date": "2026-09-06", "evidence_level": "satellite_only", "product_stamp": "provisional_satellite_analytical_service", "najd_model_validation": "not_validated", "formula_ref": "SCIENCE_LOCKS_v0.4_phase1_2.md\u00a71-2 + SCIENCE_LOCKS_v0.4_aou_temporal_ledger.md + SCIENCE_LOCKS_v0.4_observation_integrity.md + SCIENCE_LOCKS_v0.4_post_integrity_evaluator.md + SCIENCE_LOCKS_v0.4_evaluator_deep_recheck.md + SCIENCE_LOCKS_v0.4_post29_evaluator_residuals.md", "date": "2026-09-06", "join_rule": "max_overlap_area", "temporal_evidence_sufficient": false, "temporal_evidence_ar": "\u0623\u062f\u0644\u0629 \u0632\u0645\u0646\u064a\u0629 \u063a\u064a\u0631 \u0643\u0627\u0641\u064a\u0629", "temporal_evidence_en": "Insufficient temporal evidence", "biotic_unknown_reason": "insufficient_temporal_evidence", "release_id": "20260919T211515Z", "run_id": "20260919T211515Z"}}, {"type": "Feature", "geometry": {"type": "Polygon", "coordinates": [[[53.85306263630894, 18.034080417448422], [53.85778074852047, 18.034010719791073], [53.85770784453678, 18.029497065914345], [53.8529898522891, 18.029566744963418], [53.85306263630894, 18.034080417448422]]]}, "properties": {"aou_id": "AOU-NJ-000005", "previous_ids": [], "first_seen_date": "2026-09-06", "last_seen_date": "2026-09-06", "active": true, "current_detection": "detected", "refresh_status": "unassessable_coverage", "observation_role": "retained_last_good", "agricultural_probability": 39.9, "ag_class": "unassessable", "area_ha_est": 25.1, "ndvi": 0.5103, "ndmi": 0.0184, "ndre": null, "ndre_available": false, "ndre_status": "unavailable", "member_count": 1, "geometry_kind": "aou_segment", "aou_not_official_farm": true, "n_clear_dates": 1, "n_dates_above_bare": 0, "persistence_feature": null, "persistence_status": "single_date_insufficient", "persistence_estimated_from_window": false, "assessability": "unassessable", "clear_member_count": 1, "clear_fraction": 1.0, "assessable_cell_fraction": 1.0, "valid_area_fraction": 0.0, "stress_flags_recent_water": [], "stress_flags_recent_vigor": [], "water_stress_score": 11.28, "vigor_stress_score": 18.0, "alert": "healthy", "possible_biotic_stress": false, "biotic_status": "unknown", "biotic_status_last_trusted": "unknown", "biotic_last_trusted_date": "2026-09-06", "valid_area_fraction_basis": "clear_pixels_in_aou", "valid_area_fraction_denominator": "aou_target_area", "clear_fraction_missing": true, "aou_target_area": 2.130077501269938e-05, "discovery_status": "provisional_new", "discovery_action": null, "match_iou": null, "aggregate_id": "AOU-NJ-000005|2026-09-06|20260919T211515Z", "aou_date_aggregate": {"aggregate_id": "AOU-NJ-000005|2026-09-06|20260919T211515Z", "aou_id": "AOU-NJ-000005", "date": "2026-09-06", "run_id": "20260919T211515Z", "ndvi": 0.5103, "ndmi": 0.0184, "water_stress_score": 11.28, "vigor_stress_score": 18.0, "alert": "healthy", "agricultural_probability": 39.9, "ag_class": "unassessable", "persistence_feature": null, "n_clear_dates": 0, "n_dates_above_bare": 0, "assessability": "unassessable", "assessable_cell_fraction": 1.0, "valid_area_fraction": 0.0, "clear_member_fraction": 1.0, "clear_member_count": 1, "member_count": 1, "observation_role": "retained_last_good", "biotic_status": "unknown", "possible_biotic_stress": false, "refresh_status": "unassessable_coverage", "accepted_cells": [{"ndvi": 0.5103, "ndmi": 0.0184, "pixel_count": 2500, "aou_overlap_area": 2.1300775012699378e-05, "product_id": "S2A_MSIL2A_20260906T070431_R020_T39QYA_20260906T093909"}], "sources": ["Copernicus Sentinel-2 L2A (ESA) via Microsoft Planetary Computer"], "coverage": {"assessable_cell_fraction": 1.0, "valid_area_fraction": 0.0, "valid_area_fraction_basis": "clear_pixels_in_aou", "valid_area_fraction_denominator": "aou_target_area", "clear_member_fraction": 1.0}, "last_good_date": "2026-09-06"}, "last_good_date": "2026-09-06", "evidence_level": "satellite_only", "product_stamp": "provisional_satellite_analytical_service", "najd_model_validation": "not_validated", "formula_ref": "SCIENCE_LOCKS_v0.4_phase1_2.md\u00a71-2 + SCIENCE_LOCKS_v0.4_aou_temporal_ledger.md + SCIENCE_LOCKS_v0.4_observation_integrity.md + SCIENCE_LOCKS_v0.4_post_integrity_evaluator.md + SCIENCE_LOCKS_v0.4_evaluator_deep_recheck.md + SCIENCE_LOCKS_v0.4_post29_evaluator_residuals.md", "date": "2026-09-06", "join_rule": "max_overlap_area", "temporal_evidence_sufficient": false, "temporal_evidence_ar": "\u0623\u062f\u0644\u0629 \u0632\u0645\u0646\u064a\u0629 \u063a\u064a\u0631 \u0643\u0627\u0641\u064a\u0629", "temporal_evidence_en": "Insufficient temporal evidence", "biotic_unknown_reason": "insufficient_temporal_evidence", "release_id": "20260919T211515Z", "run_id": "20260919T211515Z"}}, {"type": "Feature", "geometry": {"type": "Polygon", "coordinates": [[[53.83418997456093, 18.034358059942015], [53.834262299885104, 18.03887180416965], [53.83898061719617, 18.038802547284526], [53.84369891328476, 18.038733175550654], [53.84362634794508, 18.03421946832691], [53.83890817186298, 18.034288821543516], [53.83418997456093, 18.034358059942015]]]}, "properties": {"aou_id": "AOU-NJ-000006", "previous_ids": [], "first_seen_date": "2026-09-06", "last_seen_date": "2026-09-06", "active": true, "current_detection": "detected", "refresh_status": "unassessable_coverage", "observation_role": "retained_last_good", "agricultural_probability": 42.76, "ag_class": "unassessable", "area_ha_est": 50.201, "ndvi": 0.4816, "ndmi": 0.0876, "ndre": null, "ndre_available": false, "ndre_status": "unavailable", "member_count": 2, "geometry_kind": "aou_segment", "aou_not_official_farm": true, "n_clear_dates": 1, "n_dates_above_bare": 0, "persistence_feature": null, "persistence_status": "single_date_insufficient", "persistence_estimated_from_window": false, "assessability": "unassessable", "clear_member_count": 2, "clear_fraction": 1.0, "assessable_cell_fraction": 1.0, "valid_area_fraction": 0.0, "stress_flags_recent_water": [], "stress_flags_recent_vigor": [], "water_stress_score": 18.0, "vigor_stress_score": 18.0, "alert": "healthy", "possible_biotic_stress": false, "biotic_status": "unknown", "biotic_status_last_trusted": "unknown", "biotic_last_trusted_date": "2026-09-06", "valid_area_fraction_basis": "clear_pixels_in_aou", "valid_area_fraction_denominator": "aou_target_area", "clear_fraction_missing": true, "aou_target_area": 4.2603784718737945e-05, "discovery_status": "provisional_new", "discovery_action": null, "match_iou": null, "aggregate_id": "AOU-NJ-000006|2026-09-06|20260919T211515Z", "aou_date_aggregate": {"aggregate_id": "AOU-NJ-000006|2026-09-06|20260919T211515Z", "aou_id": "AOU-NJ-000006", "date": "2026-09-06", "run_id": "20260919T211515Z", "ndvi": 0.4816, "ndmi": 0.0876, "water_stress_score": 18.0, "vigor_stress_score": 18.0, "alert": "healthy", "agricultural_probability": 42.76, "ag_class": "unassessable", "persistence_feature": null, "n_clear_dates": 0, "n_dates_above_bare": 0, "assessability": "unassessable", "assessable_cell_fraction": 1.0, "valid_area_fraction": 0.0, "clear_member_fraction": 1.0, "clear_member_count": 2, "member_count": 2, "observation_role": "retained_last_good", "biotic_status": "unknown", "possible_biotic_stress": false, "refresh_status": "unassessable_coverage", "accepted_cells": [{"ndvi": 0.5057, "ndmi": 0.1082, "pixel_count": 2500, "aou_overlap_area": 2.1301975582966166e-05, "product_id": "S2A_MSIL2A_20260906T070431_R020_T39QYA_20260906T093909"}, {"ndvi": 0.4574, "ndmi": 0.067, "pixel_count": 2500, "aou_overlap_area": 2.130180913577178e-05, "product_id": "S2A_MSIL2A_20260906T070431_R020_T39QYA_20260906T093909"}], "sources": ["Copernicus Sentinel-2 L2A (ESA) via Microsoft Planetary Computer"], "coverage": {"assessable_cell_fraction": 1.0, "valid_area_fraction": 0.0, "valid_area_fraction_basis": "clear_pixels_in_aou", "valid_area_fraction_denominator": "aou_target_area", "clear_member_fraction": 1.0}, "last_good_date": "2026-09-06"}, "last_good_date": "2026-09-06", "evidence_level": "satellite_only", "product_stamp": "provisional_satellite_analytical_service", "najd_model_validation": "not_validated", "formula_ref": "SCIENCE_LOCKS_v0.4_phase1_2.md\u00a71-2 + SCIENCE_LOCKS_v0.4_aou_temporal_ledger.md + SCIENCE_LOCKS_v0.4_observation_integrity.md + SCIENCE_LOCKS_v0.4_post_integrity_evaluator.md + SCIENCE_LOCKS_v0.4_evaluator_deep_recheck.md + SCIENCE_LOCKS_v0.4_post29_evaluator_residuals.md", "date": "2026-09-06", "join_rule": "max_overlap_area", "temporal_evidence_sufficient": false, "temporal_evidence_ar": "\u0623\u062f\u0644\u0629 \u0632\u0645\u0646\u064a\u0629 \u063a\u064a\u0631 \u0643\u0627\u0641\u064a\u0629", "temporal_evidence_en": "Insufficient temporal evidence", "biotic_unknown_reason": "insufficient_temporal_evidence", "release_id": "20260919T211515Z", "run_id": "20260919T211515Z"}}, {"type": "Feature", "geometry": {"type": "Polygon", "coordinates": [[[53.87230159818977, 18.05636889143253], [53.87702022504436, 18.056298640884748], [53.87694673370069, 18.051785073714488], [53.872228226975444, 18.051855305526846], [53.87230159818977, 18.05636889143253]]]}, "properties": {"aou_id": "AOU-NJ-000007", "previous_ids": [], "first_seen_date": "2026-09-06", "last_seen_date": "2026-09-06", "active": true, "current_detection": "detected", "refresh_status": "unassessable_coverage", "observation_role": "retained_last_good", "agricultural_probability": 62.56, "ag_class": "unassessable", "area_ha_est": 25.099, "ndvi": 0.6518, "ndmi": 0.141, "ndre": null, "ndre_available": false, "ndre_status": "unavailable", "member_count": 1, "geometry_kind": "aou_segment", "aou_not_official_farm": true, "n_clear_dates": 1, "n_dates_above_bare": 0, "persistence_feature": null, "persistence_status": "single_date_insufficient", "persistence_estimated_from_window": false, "assessability": "unassessable", "clear_member_count": 1, "clear_fraction": 1.0, "assessable_cell_fraction": 1.0, "valid_area_fraction": 0.0, "stress_flags_recent_water": [], "stress_flags_recent_vigor": [], "water_stress_score": 18.0, "vigor_stress_score": 18.0, "alert": "healthy", "possible_biotic_stress": false, "biotic_status": "unknown", "biotic_status_last_trusted": "unknown", "biotic_last_trusted_date": "2026-09-06", "valid_area_fraction_basis": "clear_pixels_in_aou", "valid_area_fraction_denominator": "aou_target_area", "clear_fraction_missing": true, "aou_target_area": 2.1302770255522346e-05, "discovery_status": "provisional_new", "discovery_action": null, "match_iou": null, "aggregate_id": "AOU-NJ-000007|2026-09-06|20260919T211515Z", "aou_date_aggregate": {"aggregate_id": "AOU-NJ-000007|2026-09-06|20260919T211515Z", "aou_id": "AOU-NJ-000007", "date": "2026-09-06", "run_id": "20260919T211515Z", "ndvi": 0.6518, "ndmi": 0.141, "water_stress_score": 18.0, "vigor_stress_score": 18.0, "alert": "healthy", "agricultural_probability": 62.56, "ag_class": "unassessable", "persistence_feature": null, "n_clear_dates": 0, "n_dates_above_bare": 0, "assessability": "unassessable", "assessable_cell_fraction": 1.0, "valid_area_fraction": 0.0, "clear_member_fraction": 1.0, "clear_member_count": 1, "member_count": 1, "observation_role": "retained_last_good", "biotic_status": "unknown", "possible_biotic_stress": false, "refresh_status": "unassessable_coverage", "accepted_cells": [{"ndvi": 0.6518, "ndmi": 0.141, "pixel_count": 2500, "aou_overlap_area": 2.130277025552235e-05, "product_id": "S2A_MSIL2A_20260906T070431_R020_T39QYA_20260906T093909"}], "sources": ["Copernicus Sentinel-2 L2A (ESA) via Microsoft Planetary Computer"], "coverage": {"assessable_cell_fraction": 1.0, "valid_area_fraction": 0.0, "valid_area_fraction_basis": "clear_pixels_in_aou", "valid_area_fraction_denominator": "aou_target_area", "clear_member_fraction": 1.0}, "last_good_date": "2026-09-06"}, "last_good_date": "2026-09-06", "evidence_level": "satellite_only", "product_stamp": "provisional_satellite_analytical_service", "najd_model_validation": "not_validated", "formula_ref": "SCIENCE_LOCKS_v0.4_phase1_2.md\u00a71-2 + SCIENCE_LOCKS_v0.4_aou_temporal_ledger.md + SCIENCE_LOCKS_v0.4_observation_integrity.md + SCIENCE_LOCKS_v0.4_post_integrity_evaluator.md + SCIENCE_LOCKS_v0.4_evaluator_deep_recheck.md + SCIENCE_LOCKS_v0.4_post29_evaluator_residuals.md", "date": "2026-09-06", "join_rule": "max_overlap_area", "temporal_evidence_sufficient": false, "temporal_evidence_ar": "\u0623\u062f\u0644\u0629 \u0632\u0645\u0646\u064a\u0629 \u063a\u064a\u0631 \u0643\u0627\u0641\u064a\u0629", "temporal_evidence_en": "Insufficient temporal evidence", "biotic_unknown_reason": "insufficient_temporal_evidence", "release_id": "20260919T211515Z", "run_id": "20260919T211515Z"}}, {"type": "Feature", "geometry": {"type": "Polygon", "coordinates": [[[53.75059548183187, 18.12135167230624], [53.75531634211395, 18.121284160100853], [53.755245686328365, 18.11677014902098], [53.75052494673285, 18.1168376432755], [53.75059548183187, 18.12135167230624]]]}, "properties": {"aou_id": "AOU-NJ-000008", "previous_ids": [], "first_seen_date": "2026-09-06", "last_seen_date": "2026-09-06", "active": true, "current_detection": "detected", "refresh_status": "unassessable_coverage", "observation_role": "retained_last_good", "agricultural_probability": 63.37, "ag_class": "unassessable", "area_ha_est": 25.104, "ndvi": 0.6392, "ndmi": 0.1658, "ndre": null, "ndre_available": false, "ndre_status": "unavailable", "member_count": 1, "geometry_kind": "aou_segment", "aou_not_official_farm": true, "n_clear_dates": 1, "n_dates_above_bare": 0, "persistence_feature": null, "persistence_status": "single_date_insufficient", "persistence_estimated_from_window": false, "assessability": "unassessable", "clear_member_count": 1, "clear_fraction": 1.0, "assessable_cell_fraction": 1.0, "valid_area_fraction": 0.0, "stress_flags_recent_water": [], "stress_flags_recent_vigor": [], "water_stress_score": 18.0, "vigor_stress_score": 18.0, "alert": "healthy", "possible_biotic_stress": false, "biotic_status": "unknown", "biotic_status_last_trusted": "unknown", "biotic_last_trusted_date": "2026-09-06", "valid_area_fraction_basis": "clear_pixels_in_aou", "valid_area_fraction_denominator": "aou_target_area", "clear_fraction_missing": true, "aou_target_area": 2.1314551021188743e-05, "discovery_status": "provisional_new", "discovery_action": null, "match_iou": null, "aggregate_id": "AOU-NJ-000008|2026-09-06|20260919T211515Z", "aou_date_aggregate": {"aggregate_id": "AOU-NJ-000008|2026-09-06|20260919T211515Z", "aou_id": "AOU-NJ-000008", "date": "2026-09-06", "run_id": "20260919T211515Z", "ndvi": 0.6392, "ndmi": 0.1658, "water_stress_score": 18.0, "vigor_stress_score": 18.0, "alert": "healthy", "agricultural_probability": 63.37, "ag_class": "unassessable", "persistence_feature": null, "n_clear_dates": 0, "n_dates_above_bare": 0, "assessability": "unassessable", "assessable_cell_fraction": 1.0, "valid_area_fraction": 0.0, "clear_member_fraction": 1.0, "clear_member_count": 1, "member_count": 1, "observation_role": "retained_last_good", "biotic_status": "unknown", "possible_biotic_stress": false, "refresh_status": "unassessable_coverage", "accepted_cells": [{"ndvi": 0.6392, "ndmi": 0.1658, "pixel_count": 2500, "aou_overlap_area": 2.1314551021188743e-05, "product_id": "S2A_MSIL2A_20260906T070431_R020_T39QYA_20260906T093909"}], "sources": ["Copernicus Sentinel-2 L2A (ESA) via Microsoft Planetary Computer"], "coverage": {"assessable_cell_fraction": 1.0, "valid_area_fraction": 0.0, "valid_area_fraction_basis": "clear_pixels_in_aou", "valid_area_fraction_denominator": "aou_target_area", "clear_member_fraction": 1.0}, "last_good_date": "2026-09-06"}, "last_good_date": "2026-09-06", "evidence_level": "satellite_only", "product_stamp": "provisional_satellite_analytical_service", "najd_model_validation": "not_validated", "formula_ref": "SCIENCE_LOCKS_v0.4_phase1_2.md\u00a71-2 + SCIENCE_LOCKS_v0.4_aou_temporal_ledger.md + SCIENCE_LOCKS_v0.4_observation_integrity.md + SCIENCE_LOCKS_v0.4_post_integrity_evaluator.md + SCIENCE_LOCKS_v0.4_evaluator_deep_recheck.md + SCIENCE_LOCKS_v0.4_post29_evaluator_residuals.md", "date": "2026-09-06", "join_rule": "max_overlap_area", "temporal_evidence_sufficient": false, "temporal_evidence_ar": "\u0623\u062f\u0644\u0629 \u0632\u0645\u0646\u064a\u0629 \u063a\u064a\u0631 \u0643\u0627\u0641\u064a\u0629", "temporal_evidence_en": "Insufficient temporal evidence", "biotic_unknown_reason": "insufficient_temporal_evidence", "release_id": "20260919T211515Z", "run_id": "20260919T211515Z"}}, {"type": "Feature", "geometry": {"type": "Polygon", "coordinates": [[[53.79823404307884, 18.147754394380154], [53.802955420147825, 18.147685618301168], [53.802883431678026, 18.143171802753592], [53.79816217548228, 18.143240560569513], [53.79823404307884, 18.147754394380154]]]}, "properties": {"aou_id": "AOU-NJ-000009", "previous_ids": [], "first_seen_date": "2026-09-06", "last_seen_date": "2026-09-06", "active": true, "current_detection": "detected", "refresh_status": "unassessable_coverage", "observation_role": "retained_last_good", "agricultural_probability": 43.85, "ag_class": "unassessable", "area_ha_est": 25.102, "ndvi": 0.5001, "ndmi": 0.08, "ndre": null, "ndre_available": false, "ndre_status": "unavailable", "member_count": 1, "geometry_kind": "aou_segment", "aou_not_official_farm": true, "n_clear_dates": 1, "n_dates_above_bare": 0, "persistence_feature": null, "persistence_status": "single_date_insufficient", "persistence_estimated_from_window": false, "assessability": "unassessable", "clear_member_count": 1, "clear_fraction": 1.0, "assessable_cell_fraction": 1.0, "valid_area_fraction": 0.0, "stress_flags_recent_water": [], "stress_flags_recent_vigor": [], "water_stress_score": 18.0, "vigor_stress_score": 18.0, "alert": "healthy", "possible_biotic_stress": false, "biotic_status": "unknown", "biotic_status_last_trusted": "unknown", "biotic_last_trusted_date": "2026-09-06", "valid_area_fraction_basis": "clear_pixels_in_aou", "valid_area_fraction_denominator": "aou_target_area", "clear_fraction_missing": true, "aou_target_area": 2.1316141804322676e-05, "discovery_status": "provisional_new", "discovery_action": null, "match_iou": null, "aggregate_id": "AOU-NJ-000009|2026-09-06|20260919T211515Z", "aou_date_aggregate": {"aggregate_id": "AOU-NJ-000009|2026-09-06|20260919T211515Z", "aou_id": "AOU-NJ-000009", "date": "2026-09-06", "run_id": "20260919T211515Z", "ndvi": 0.5001, "ndmi": 0.08, "water_stress_score": 18.0, "vigor_stress_score": 18.0, "alert": "healthy", "agricultural_probability": 43.85, "ag_class": "unassessable", "persistence_feature": null, "n_clear_dates": 0, "n_dates_above_bare": 0, "assessability": "unassessable", "assessable_cell_fraction": 1.0, "valid_area_fraction": 0.0, "clear_member_fraction": 1.0, "clear_member_count": 1, "member_count": 1, "observation_role": "retained_last_good", "biotic_status": "unknown", "possible_biotic_stress": false, "refresh_status": "unassessable_coverage", "accepted_cells": [{"ndvi": 0.5001, "ndmi": 0.08, "pixel_count": 2500, "aou_overlap_area": 2.1316141804322676e-05, "product_id": "S2A_MSIL2A_20260906T070431_R020_T39QYA_20260906T093909"}], "sources": ["Copernicus Sentinel-2 L2A (ESA) via Microsoft Planetary Computer"], "coverage": {"assessable_cell_fraction": 1.0, "valid_area_fraction": 0.0, "valid_area_fraction_basis": "clear_pixels_in_aou", "valid_area_fraction_denominator": "aou_target_area", "clear_member_fraction": 1.0}, "last_good_date": "2026-09-06"}, "last_good_date": "2026-09-06", "evidence_level": "satellite_only", "product_stamp": "provisional_satellite_analytical_service", "najd_model_validation": "not_validated", "formula_ref": "SCIENCE_LOCKS_v0.4_phase1_2.md\u00a71-2 + SCIENCE_LOCKS_v0.4_aou_temporal_ledger.md + SCIENCE_LOCKS_v0.4_observation_integrity.md + SCIENCE_LOCKS_v0.4_post_integrity_evaluator.md + SCIENCE_LOCKS_v0.4_evaluator_deep_recheck.md + SCIENCE_LOCKS_v0.4_post29_evaluator_residuals.md", "date": "2026-09-06", "join_rule": "max_overlap_area", "temporal_evidence_sufficient": false, "temporal_evidence_ar": "\u0623\u062f\u0644\u0629 \u0632\u0645\u0646\u064a\u0629 \u063a\u064a\u0631 \u0643\u0627\u0641\u064a\u0629", "temporal_evidence_en": "Insufficient temporal evidence", "biotic_unknown_reason": "insufficient_temporal_evidence", "release_id": "20260919T211515Z", "run_id": "20260919T211515Z"}}], "release_id": "20260919T211515Z", "run_id": "20260919T211515Z"}