{
  "type": "FeatureCollection",
  "release_id": "iso-20260906-post30",
  "run_id": "iso-20260906-post30",
  "properties": {
    "release_id": "iso-20260906-post30",
    "run_id": "iso-20260906-post30",
    "date": "2026-09-06",
    "observation_date": "2026-09-06",
    "processed_at": "2026-09-19T20:58:09.247222+00:00",
    "engine_version": "0.4.9-post30-followup",
    "alert_counts": {
      "healthy": 1
    }
  },
  "features": [
    {
      "type": "Feature",
      "geometry": {
        "type": "Polygon",
        "coordinates": [
          [
            [
              53.808,
              18.002
            ],
            [
              53.808,
              18.008
            ],
            [
              53.802,
              18.008
            ],
            [
              53.802,
              18.002
            ],
            [
              53.808,
              18.002
            ]
          ]
        ]
      },
      "properties": {
        "ndvi": 0.42,
        "ndmi": 0.1,
        "date": "2026-09-06",
        "alert": "healthy",
        "pixel_count": 200,
        "valid_pixel_count": 180,
        "total_pixel_count": 200,
        "clear_fraction": 0.9,
        "scl_clear": true,
        "source": "synthetic",
        "product_id": "SYN-ISO",
        "tile": "39QYA",
        "cloud_cover": 2.0,
        "aou_id": "AOU-ISO-000001",
        "aou_overlap_area": 3.600000000000273e-05,
        "assessability": "assessable",
        "possible_biotic_stress": false
      }
    }
  ]
}