{"type": "FeatureCollection", "release_id": "iso-20260906-post30", "run_id": "iso-20260906-post30", "features": [{"type": "Feature", "geometry": {"type": "Polygon", "coordinates": [[[53.81, 18.0], [53.81, 18.01], [53.8, 18.01], [53.8, 18.0], [53.81, 18.0]]]}, "properties": {"aou_id": "AOU-ISO-000001", "previous_ids": [], "first_seen_date": "2026-08-01", "last_seen_date": "2026-09-06", "active": true, "current_detection": "detected", "refresh_status": "refreshed", "observation_role": "current_observation", "agricultural_probability": 38.11, "ag_class": "possible", "area_ha_est": 5.0, "ndvi": 0.42, "ndmi": 0.1, "ndre": null, "ndre_available": false, "ndre_status": "unavailable", "member_count": 1, "geometry_kind": "aou_segment", "aou_not_official_farm": true, "n_clear_dates": 1, "n_dates_above_bare": 0, "persistence_feature": null, "persistence_status": "single_date_insufficient", "persistence_estimated_from_window": false, "assessability": "assessable", "clear_member_count": 1, "clear_fraction": 1.0, "assessable_cell_fraction": 1.0, "valid_area_fraction": 0.3239999999998082, "stress_flags_recent_water": [], "stress_flags_recent_vigor": [], "water_stress_score": 0.0, "vigor_stress_score": 0.0, "alert": "healthy", "possible_biotic_stress": false, "biotic_status": "unknown", "biotic_status_last_trusted": "unknown", "biotic_last_trusted_date": "2026-08-01", "valid_area_fraction_basis": "overlap_times_clear_fraction_estimate", "valid_area_fraction_denominator": "aou_target_area", "clear_fraction_missing": false, "aou_target_area": 0.00010000000000006679, "discovery_status": "provisional_new", "discovery_action": null, "match_iou": null, "aggregate_id": "AOU-ISO-000001|2026-09-06|norun", "aou_date_aggregate": {"aggregate_id": "AOU-ISO-000001|2026-09-06|norun", "aou_id": "AOU-ISO-000001", "date": "2026-09-06", "run_id": null, "ndvi": 0.42, "ndmi": 0.1, "water_stress_score": 0.0, "vigor_stress_score": 0.0, "alert": "healthy", "agricultural_probability": 38.11, "ag_class": "possible", "persistence_feature": null, "n_clear_dates": 1, "n_dates_above_bare": 0, "assessability": "assessable", "assessable_cell_fraction": 1.0, "valid_area_fraction": 0.3239999999998082, "clear_member_fraction": 1.0, "clear_member_count": 1, "member_count": 1, "observation_role": "current_observation", "biotic_status": "unknown", "possible_biotic_stress": false, "refresh_status": "refreshed", "accepted_cells": [{"ndvi": 0.42, "ndmi": 0.1, "pixel_count": 200, "aou_overlap_area": 3.600000000000273e-05, "product_id": "SYN-ISO"}], "sources": ["synthetic"], "coverage": {"assessable_cell_fraction": 1.0, "valid_area_fraction": 0.3239999999998082, "valid_area_fraction_basis": "overlap_times_clear_fraction_estimate", "valid_area_fraction_denominator": "aou_target_area", "clear_member_fraction": 1.0}}, "last_good_date": "2026-08-01", "evidence_level": "satellite_only", "product_stamp": "provisional_satellite_analytical_service", "najd_model_validation": "not_validated", "formula_ref": "SCIENCE_LOCKS_v0.4_phase1_2.md\u00a71-2 + SCIENCE_LOCKS_v0.4_aou_temporal_ledger.md + SCIENCE_LOCKS_v0.4_observation_integrity.md + SCIENCE_LOCKS_v0.4_post_integrity_evaluator.md + SCIENCE_LOCKS_v0.4_evaluator_deep_recheck.md + SCIENCE_LOCKS_v0.4_post29_evaluator_residuals.md", "date": "2026-09-06", "join_rule": "max_overlap_area", "temporal_evidence_sufficient": false, "temporal_evidence_ar": "\u0623\u062f\u0644\u0629 \u0632\u0645\u0646\u064a\u0629 \u063a\u064a\u0631 \u0643\u0627\u0641\u064a\u0629", "temporal_evidence_en": "Insufficient temporal evidence", "biotic_unknown_reason": "insufficient_temporal_evidence", "release_id": "iso-20260906-post30"}}]}