{"type": "FeatureCollection", "name": "aou_registry", "properties": {"formula_ref": "SCIENCE_LOCKS_v0.4_phase1_2.md\u00a72 + SCIENCE_LOCKS_v0.4_aou_temporal_ledger.md + SCIENCE_LOCKS_v0.4_observation_integrity.md + SCIENCE_LOCKS_v0.4_post_integrity_evaluator.md + SCIENCE_LOCKS_v0.4_evaluator_deep_recheck.md", "aou_not_official_farm": true, "count": 9, "product_stamp": "provisional_satellite_analytical_service", "najd_model_validation": "not_validated", "active_means": "registry_identity_only", "current_detection_enum": ["detected", "weak", "not_detected"], "join_rule": "max_overlap_area", "run_id": "20260924T044623Z-1acc51f5", "last_updated": "2026-09-24T04:47:00.998606+00:00", "release_id": "20260924T044623Z-1acc51f5"}, "features": [{"type": "Feature", "geometry": {"type": "Polygon", "coordinates": [[[53.70234795493869, 18.054307093365658], [53.70241699983863, 18.058821333333018], [53.7071363777756, 18.058755222593653], [53.70706721265756, 18.054241000258138], [53.70234795493869, 18.054307093365658]]]}, "properties": {"aou_id": "AOU-NJ-000001", "previous_ids": [], "first_seen_date": "2026-08-17", "last_seen_date": "2026-09-19", "active": true, "current_detection": "weak", "refresh_status": "refreshed", "observation_role": "current_observation", "agricultural_probability": 14.3, "ag_class": "unlikely", "area_ha_est": 25.106, "ndvi": 0.1225, "ndmi": -0.0828, "ndre": null, "ndre_available": false, "ndre_status": "unavailable", "member_count": 2, "geometry_kind": "aou_segment", "aou_not_official_farm": true, "n_clear_dates": 5, "n_dates_above_bare": 3, "persistence_feature": 0.6, "persistence_status": "multi_date", "persistence_estimated_from_window": false, "assessability": "assessable", "clear_member_count": 2, "clear_fraction": 1.0, "assessable_cell_fraction": 1.0, "valid_area_fraction": 0.9999999012547719, "stress_flags_recent_water": [false, false, false], "stress_flags_recent_vigor": [false, false, false], "water_stress_score": 65.0, "vigor_stress_score": 54.72, "alert": "bare", "possible_biotic_stress": false, "biotic_status": "not_flagged", "biotic_status_last_trusted": "not_flagged", "biotic_last_trusted_date": "2026-09-19", "valid_area_fraction_basis": "overlap_times_clear_fraction_estimate", "valid_area_fraction_denominator": "aou_target_area", "clear_fraction_missing": false, "aou_target_area": 2.1308659526346988e-05, "discovery_status": "established", "discovery_action": null, "match_iou": null, "aggregate_id": "AOU-NJ-000001|2026-09-19|20260924T044623Z-1acc51f5", "aou_date_aggregate": {"aggregate_id": "AOU-NJ-000001|2026-09-19|20260924T044623Z-1acc51f5", "aou_id": "AOU-NJ-000001", "date": "2026-09-19", "run_id": "20260924T044623Z-1acc51f5", "ndvi": 0.1225, "ndmi": -0.0828, "water_stress_score": 65.0, "vigor_stress_score": 54.72, "alert": "bare", "agricultural_probability": 14.3, "ag_class": "unlikely", "persistence_feature": 0.6, "n_clear_dates": 5, "n_dates_above_bare": 3, "assessability": "assessable", "assessable_cell_fraction": 1.0, "valid_area_fraction": 0.9999999012547719, "clear_member_fraction": 1.0, "clear_member_count": 2, "member_count": 2, "observation_role": "current_observation", "biotic_status": "not_flagged", "possible_biotic_stress": false, "refresh_status": "refreshed", "accepted_cells": [{"ndvi": 0.1721, "ndmi": -0.068, "pixel_count": 2500, "aou_overlap_area": 1.912436513985401e-05, "product_id": "S2B_MSIL2A_20260919T064619_R020_T39QYA_20260919T104621"}, {"ndvi": 0.0728, "ndmi": -0.0975, "pixel_count": 2500, "aou_overlap_area": 2.1842922823645305e-06, "product_id": "S2B_MSIL2A_20260919T064619_R020_T39QYA_20260919T104621"}], "sources": ["Copernicus Sentinel-2 L2A (ESA) via Microsoft Planetary Computer"], "coverage": {"assessable_cell_fraction": 1.0, "valid_area_fraction": 0.9999999012547719, "valid_area_fraction_basis": "overlap_times_clear_fraction_estimate", "valid_area_fraction_denominator": "aou_target_area", "clear_member_fraction": 1.0}}, "last_good_date": "2026-09-19", "evidence_level": "satellite_only", "product_stamp": "provisional_satellite_analytical_service", "najd_model_validation": "not_validated", "formula_ref": "SCIENCE_LOCKS_v0.4_phase1_2.md\u00a71-2 + SCIENCE_LOCKS_v0.4_aou_temporal_ledger.md + SCIENCE_LOCKS_v0.4_observation_integrity.md + SCIENCE_LOCKS_v0.4_post_integrity_evaluator.md + SCIENCE_LOCKS_v0.4_evaluator_deep_recheck.md + SCIENCE_LOCKS_v0.4_post29_evaluator_residuals.md", "date": "2026-09-19", "join_rule": "max_overlap_area", "temporal_evidence_sufficient": true, "temporal_evidence_ar": null, "temporal_evidence_en": null, "biotic_unknown_reason": null, "release_id": "20260924T044623Z-1acc51f5", "run_id": "20260924T044623Z-1acc51f5"}}, {"type": "Feature", "geometry": {"type": "Polygon", "coordinates": [[[53.73629245197536, 18.11252534848183], [53.73636260450939, 18.117039433556084], [53.74108340578815, 18.11697228554525], [53.74115369950671, 18.121486350385673], [53.745874600951055, 18.12141906906858], [53.74580418654105, 18.116905022117656], [53.74573379269212, 18.11239097278996], [53.741013132595455, 18.112458218328936], [53.7409428799262, 18.107944148737268], [53.73622231992956, 18.108011261033113], [53.73629245197536, 18.11252534848183]]]}, "properties": {"aou_id": "AOU-NJ-000002", "previous_ids": [], "first_seen_date": "2026-08-17", "last_seen_date": "2026-09-19", "active": true, "current_detection": "detected", "refresh_status": "refreshed", "observation_role": "current_observation", "agricultural_probability": 25.32, "ag_class": "unlikely", "area_ha_est": 100.416, "ndvi": 0.2455, "ndmi": 0.0024, "ndre": null, "ndre_available": false, "ndre_status": "unavailable", "member_count": 4, "geometry_kind": "aou_segment", "aou_not_official_farm": true, "n_clear_dates": 4, "n_dates_above_bare": 3, "persistence_feature": 0.75, "persistence_status": "multi_date", "persistence_estimated_from_window": false, "assessability": "assessable", "clear_member_count": 8, "clear_fraction": 1.0, "assessable_cell_fraction": 1.0, "valid_area_fraction": 0.9999999624376247, "stress_flags_recent_water": [false, false, false], "stress_flags_recent_vigor": [false, false, false], "water_stress_score": 41.0, "vigor_stress_score": 34.61, "alert": "healthy", "possible_biotic_stress": false, "biotic_status": "not_flagged", "biotic_status_last_trusted": "not_flagged", "biotic_last_trusted_date": "2026-09-19", "valid_area_fraction_basis": "overlap_times_clear_fraction_estimate", "valid_area_fraction_denominator": "aou_target_area", "clear_fraction_missing": false, "aou_target_area": 8.525767107452469e-05, "discovery_status": "established", "discovery_action": null, "match_iou": null, "aggregate_id": "AOU-NJ-000002|2026-09-19|20260924T044623Z-1acc51f5", "aou_date_aggregate": {"aggregate_id": "AOU-NJ-000002|2026-09-19|20260924T044623Z-1acc51f5", "aou_id": "AOU-NJ-000002", "date": "2026-09-19", "run_id": "20260924T044623Z-1acc51f5", "ndvi": 0.2455, "ndmi": 0.0024, "water_stress_score": 41.0, "vigor_stress_score": 34.61, "alert": "healthy", "agricultural_probability": 25.32, "ag_class": "unlikely", "persistence_feature": 0.75, "n_clear_dates": 4, "n_dates_above_bare": 3, "assessability": "assessable", "assessable_cell_fraction": 1.0, "valid_area_fraction": 0.9999999624376247, "clear_member_fraction": 1.0, "clear_member_count": 8, "member_count": 8, "observation_role": "current_observation", "biotic_status": "not_flagged", "possible_biotic_stress": false, "refresh_status": "refreshed", "accepted_cells": [{"ndvi": 0.3287, "ndmi": 0.0622, "pixel_count": 2500, "aou_overlap_area": 1.912994217816668e-05, "product_id": "S2B_MSIL2A_20260919T064619_R020_T39QYA_20260919T104621"}, {"ndvi": 0.1406, "ndmi": -0.0936, "pixel_count": 2500, "aou_overlap_area": 1.9129606374659234e-05, "product_id": "S2B_MSIL2A_20260919T064619_R020_T39QYA_20260919T104621"}, {"ndvi": 0.1717, "ndmi": -0.0867, "pixel_count": 2500, "aou_overlap_area": 2.1314391101936305e-05, "product_id": "S2B_MSIL2A_20260919T064619_R020_T39QYA_20260919T104621"}, {"ndvi": 0.3256, "ndmi": 0.0659, "pixel_count": 2500, "aou_overlap_area": 1.0692115431705425e-12, "product_id": "S2B_MSIL2A_20260919T064619_R020_T39QYA_20260919T104621"}, {"ndvi": 0.1539, "ndmi": -0.0661, "pixel_count": 2500, "aou_overlap_area": 1.0654890415481476e-12, "product_id": "S2B_MSIL2A_20260919T064619_R020_T39QYA_20260919T104621"}, {"ndvi": 0.3588, "ndmi": 0.0771, "pixel_count": 2500, "aou_overlap_area": 2.131401504711693e-05, "product_id": "S2B_MSIL2A_20260919T064619_R020_T39QYA_20260919T104621"}, {"ndvi": 0.3962, "ndmi": 0.1392, "pixel_count": 2500, "aou_overlap_area": 2.1848752780515038e-06, "product_id": "S2B_MSIL2A_20260919T064619_R020_T39QYA_20260919T104621"}, {"ndvi": 0.0886, "ndmi": -0.0787, "pixel_count": 2500, "aou_overlap_area": 2.18483575741281e-06, "product_id": "S2B_MSIL2A_20260919T064619_R020_T39QYA_20260919T104621"}], "sources": ["Copernicus Sentinel-2 L2A (ESA) via Microsoft Planetary Computer"], "coverage": {"assessable_cell_fraction": 1.0, "valid_area_fraction": 0.9999999624376247, "valid_area_fraction_basis": "overlap_times_clear_fraction_estimate", "valid_area_fraction_denominator": "aou_target_area", "clear_member_fraction": 1.0}}, "last_good_date": "2026-09-19", "evidence_level": "satellite_only", "product_stamp": "provisional_satellite_analytical_service", "najd_model_validation": "not_validated", "formula_ref": "SCIENCE_LOCKS_v0.4_phase1_2.md\u00a71-2 + SCIENCE_LOCKS_v0.4_aou_temporal_ledger.md + SCIENCE_LOCKS_v0.4_observation_integrity.md + SCIENCE_LOCKS_v0.4_post_integrity_evaluator.md + SCIENCE_LOCKS_v0.4_evaluator_deep_recheck.md + SCIENCE_LOCKS_v0.4_post29_evaluator_residuals.md", "date": "2026-09-19", "join_rule": "max_overlap_area", "temporal_evidence_sufficient": true, "temporal_evidence_ar": null, "temporal_evidence_en": null, "biotic_unknown_reason": null, "release_id": "20260924T044623Z-1acc51f5", "run_id": "20260924T044623Z-1acc51f5"}}, {"type": "Feature", "geometry": {"type": "Polygon", "coordinates": [[[53.741646330465564, 18.153084737698844], [53.74636807773636, 18.15301733113047], [53.746297519330454, 18.14850330083195], [53.746226981502716, 18.1439892681529], [53.741505476072795, 18.144056638930774], [53.741575892997716, 18.148570689504627], [53.741646330465564, 18.153084737698844]]]}, "properties": {"aou_id": "AOU-NJ-000003", "previous_ids": [], "first_seen_date": "2026-08-17", "last_seen_date": "2026-09-19", "active": true, "current_detection": "detected", "refresh_status": "refreshed", "observation_role": "current_observation", "agricultural_probability": 21.6, "ag_class": "unlikely", "area_ha_est": 50.208, "ndvi": 0.1813, "ndmi": -0.0531, "ndre": null, "ndre_available": false, "ndre_status": "unavailable", "member_count": 3, "geometry_kind": "aou_segment", "aou_not_official_farm": true, "n_clear_dates": 4, "n_dates_above_bare": 4, "persistence_feature": 1.0, "persistence_status": "multi_date", "persistence_estimated_from_window": false, "assessability": "assessable", "clear_member_count": 5, "clear_fraction": 1.0, "assessable_cell_fraction": 1.0, "valid_area_fraction": 0.9999999498409037, "stress_flags_recent_water": [false, false, false], "stress_flags_recent_vigor": [false, false, false], "water_stress_score": 54.31, "vigor_stress_score": 40.3, "alert": "bare", "possible_biotic_stress": false, "biotic_status": "not_flagged", "biotic_status_last_trusted": "not_flagged", "biotic_last_trusted_date": "2026-09-19", "valid_area_fraction_basis": "overlap_times_clear_fraction_estimate", "valid_area_fraction_denominator": "aou_target_area", "clear_fraction_missing": false, "aou_target_area": 4.2636724602053994e-05, "discovery_status": "established", "discovery_action": null, "match_iou": null, "aggregate_id": "AOU-NJ-000003|2026-09-19|20260924T044623Z-1acc51f5", "aou_date_aggregate": {"aggregate_id": "AOU-NJ-000003|2026-09-19|20260924T044623Z-1acc51f5", "aou_id": "AOU-NJ-000003", "date": "2026-09-19", "run_id": "20260924T044623Z-1acc51f5", "ndvi": 0.1813, "ndmi": -0.0531, "water_stress_score": 54.31, "vigor_stress_score": 40.3, "alert": "bare", "agricultural_probability": 21.6, "ag_class": "unlikely", "persistence_feature": 1.0, "n_clear_dates": 4, "n_dates_above_bare": 4, "assessability": "assessable", "assessable_cell_fraction": 1.0, "valid_area_fraction": 0.9999999498409037, "clear_member_fraction": 1.0, "clear_member_count": 5, "member_count": 5, "observation_role": "current_observation", "biotic_status": "not_flagged", "possible_biotic_stress": false, "refresh_status": "refreshed", "accepted_cells": [{"ndvi": 0.2056, "ndmi": -0.0515, "pixel_count": 2500, "aou_overlap_area": 1.9133314504028206e-05, "product_id": "S2B_MSIL2A_20260919T064619_R020_T39QYA_20260919T104621"}, {"ndvi": 0.1265, "ndmi": -0.0857, "pixel_count": 2500, "aou_overlap_area": 1.0683337957772336e-12, "product_id": "S2B_MSIL2A_20260919T064619_R020_T39QYA_20260919T104621"}, {"ndvi": 0.2333, "ndmi": -0.0354, "pixel_count": 2500, "aou_overlap_area": 2.1318146603492165e-05, "product_id": "S2B_MSIL2A_20260919T064619_R020_T39QYA_20260919T104621"}, {"ndvi": 0.2841, "ndmi": 0.0029, "pixel_count": 2500, "aou_overlap_area": 1.0700821879642653e-12, "product_id": "S2B_MSIL2A_20260919T064619_R020_T39QYA_20260919T104621"}, {"ndvi": 0.0572, "ndmi": -0.096, "pixel_count": 2500, "aou_overlap_area": 2.1852592174980565e-06, "product_id": "S2B_MSIL2A_20260919T064619_R020_T39QYA_20260919T104621"}], "sources": ["Copernicus Sentinel-2 L2A (ESA) via Microsoft Planetary Computer"], "coverage": {"assessable_cell_fraction": 1.0, "valid_area_fraction": 0.9999999498409037, "valid_area_fraction_basis": "overlap_times_clear_fraction_estimate", "valid_area_fraction_denominator": "aou_target_area", "clear_member_fraction": 1.0}}, "last_good_date": "2026-09-19", "evidence_level": "satellite_only", "product_stamp": "provisional_satellite_analytical_service", "najd_model_validation": "not_validated", "formula_ref": "SCIENCE_LOCKS_v0.4_phase1_2.md\u00a71-2 + SCIENCE_LOCKS_v0.4_aou_temporal_ledger.md + SCIENCE_LOCKS_v0.4_observation_integrity.md + SCIENCE_LOCKS_v0.4_post_integrity_evaluator.md + SCIENCE_LOCKS_v0.4_evaluator_deep_recheck.md + SCIENCE_LOCKS_v0.4_post29_evaluator_residuals.md", "date": "2026-09-19", "join_rule": "max_overlap_area", "temporal_evidence_sufficient": true, "temporal_evidence_ar": null, "temporal_evidence_en": null, "biotic_unknown_reason": null, "release_id": "20260924T044623Z-1acc51f5", "run_id": "20260924T044623Z-1acc51f5"}}, {"type": "Feature", "geometry": {"type": "Polygon", "coordinates": [[[53.90953014024016, 18.02420957194014], [53.90960434191477, 18.028723021502117], [53.91432207555026, 18.028651965263133], [53.91424775397743, 18.02413853467612], [53.90953014024016, 18.02420957194014]]]}, "properties": {"aou_id": "AOU-NJ-000004", "previous_ids": [], "first_seen_date": "2026-08-17", "last_seen_date": "2026-09-19", "active": true, "current_detection": "detected", "refresh_status": "refreshed", "observation_role": "current_observation", "agricultural_probability": 9.5, "ag_class": "unlikely", "area_ha_est": 25.098, "ndvi": 0.1204, "ndmi": -0.0827, "ndre": null, "ndre_available": false, "ndre_status": "unavailable", "member_count": 1, "geometry_kind": "aou_segment", "aou_not_official_farm": true, "n_clear_dates": 6, "n_dates_above_bare": 2, "persistence_feature": 0.3333333333333333, "persistence_status": "multi_date", "persistence_estimated_from_window": false, "assessability": "assessable", "clear_member_count": 4, "clear_fraction": 1.0, "assessable_cell_fraction": 1.0, "valid_area_fraction": 0.9999999891083816, "stress_flags_recent_water": [false, false, true], "stress_flags_recent_vigor": [false, false, true], "water_stress_score": 76.7, "vigor_stress_score": 68.37, "alert": "bare", "possible_biotic_stress": false, "biotic_status": "not_flagged", "biotic_status_last_trusted": "not_flagged", "biotic_last_trusted_date": "2026-09-19", "valid_area_fraction_basis": "overlap_times_clear_fraction_estimate", "valid_area_fraction_denominator": "aou_target_area", "clear_fraction_missing": false, "aou_target_area": 2.129821352162162e-05, "discovery_status": "established", "discovery_action": null, "match_iou": null, "aggregate_id": "AOU-NJ-000004|2026-09-19|20260924T044623Z-1acc51f5", "aou_date_aggregate": {"aggregate_id": "AOU-NJ-000004|2026-09-19|20260924T044623Z-1acc51f5", "aou_id": "AOU-NJ-000004", "date": "2026-09-19", "run_id": "20260924T044623Z-1acc51f5", "ndvi": 0.1204, "ndmi": -0.0827, "water_stress_score": 76.7, "vigor_stress_score": 68.37, "alert": "bare", "agricultural_probability": 9.5, "ag_class": "unlikely", "persistence_feature": 0.3333333333333333, "n_clear_dates": 6, "n_dates_above_bare": 2, "assessability": "assessable", "assessable_cell_fraction": 1.0, "valid_area_fraction": 0.9999999891083816, "clear_member_fraction": 1.0, "clear_member_count": 4, "member_count": 4, "observation_role": "current_observation", "biotic_status": "not_flagged", "possible_biotic_stress": false, "refresh_status": "refreshed", "accepted_cells": [{"ndvi": 0.0704, "ndmi": -0.1065, "pixel_count": 2500, "aou_overlap_area": 1.0147434249425961e-12, "product_id": "S2B_MSIL2A_20260919T064619_R020_T39QYA_20260919T104621"}, {"ndvi": 0.1544, "ndmi": -0.081, "pixel_count": 2500, "aou_overlap_area": 1.9114989735861895e-05, "product_id": "S2B_MSIL2A_20260919T064619_R020_T39QYA_20260919T104621"}, {"ndvi": 0.0651, "ndmi": -0.0957, "pixel_count": 2500, "aou_overlap_area": 1.0163099965636881e-12, "product_id": "S2B_MSIL2A_20260919T064619_R020_T39QYA_20260919T104621"}, {"ndvi": 0.1917, "ndmi": -0.0476, "pixel_count": 2500, "aou_overlap_area": 2.1832215227342933e-06, "product_id": "S2B_MSIL2A_20260919T064619_R020_T39QYA_20260919T104621"}], "sources": ["Copernicus Sentinel-2 L2A (ESA) via Microsoft Planetary Computer"], "coverage": {"assessable_cell_fraction": 1.0, "valid_area_fraction": 0.9999999891083816, "valid_area_fraction_basis": "overlap_times_clear_fraction_estimate", "valid_area_fraction_denominator": "aou_target_area", "clear_member_fraction": 1.0}}, "last_good_date": "2026-09-19", "evidence_level": "satellite_only", "product_stamp": "provisional_satellite_analytical_service", "najd_model_validation": "not_validated", "formula_ref": "SCIENCE_LOCKS_v0.4_phase1_2.md\u00a71-2 + SCIENCE_LOCKS_v0.4_aou_temporal_ledger.md + SCIENCE_LOCKS_v0.4_observation_integrity.md + SCIENCE_LOCKS_v0.4_post_integrity_evaluator.md + SCIENCE_LOCKS_v0.4_evaluator_deep_recheck.md + SCIENCE_LOCKS_v0.4_post29_evaluator_residuals.md", "date": "2026-09-19", "join_rule": "max_overlap_area", "temporal_evidence_sufficient": true, "temporal_evidence_ar": null, "temporal_evidence_en": null, "biotic_unknown_reason": null, "release_id": "20260924T044623Z-1acc51f5", "run_id": "20260924T044623Z-1acc51f5"}}, {"type": "Feature", "geometry": {"type": "Polygon", "coordinates": [[[53.85306263630894, 18.034080417448422], [53.85778074852047, 18.034010719791073], [53.85770784453678, 18.029497065914345], [53.8529898522891, 18.029566744963418], [53.85306263630894, 18.034080417448422]]]}, "properties": {"aou_id": "AOU-NJ-000005", "previous_ids": [], "first_seen_date": "2026-08-17", "last_seen_date": "2026-09-19", "active": true, "current_detection": "detected", "refresh_status": "refreshed", "observation_role": "current_observation", "agricultural_probability": 39.69, "ag_class": "possible", "area_ha_est": 25.1, "ndvi": 0.3567, "ndmi": 0.0721, "ndre": null, "ndre_available": false, "ndre_status": "unavailable", "member_count": 1, "geometry_kind": "aou_segment", "aou_not_official_farm": true, "n_clear_dates": 6, "n_dates_above_bare": 5, "persistence_feature": 0.8333333333333334, "persistence_status": "multi_date", "persistence_estimated_from_window": false, "assessability": "assessable", "clear_member_count": 2, "clear_fraction": 1.0, "assessable_cell_fraction": 1.0, "valid_area_fraction": 0.9999998957977093, "stress_flags_recent_water": [true, false, false], "stress_flags_recent_vigor": [false, false, false], "water_stress_score": 49.45, "vigor_stress_score": 31.5, "alert": "healthy", "possible_biotic_stress": false, "biotic_status": "not_flagged", "biotic_status_last_trusted": "not_flagged", "biotic_last_trusted_date": "2026-09-19", "valid_area_fraction_basis": "overlap_times_clear_fraction_estimate", "valid_area_fraction_denominator": "aou_target_area", "clear_fraction_missing": false, "aou_target_area": 2.130077501269938e-05, "discovery_status": "established", "discovery_action": null, "match_iou": null, "aggregate_id": "AOU-NJ-000005|2026-09-19|20260924T044623Z-1acc51f5", "aou_date_aggregate": {"aggregate_id": "AOU-NJ-000005|2026-09-19|20260924T044623Z-1acc51f5", "aou_id": "AOU-NJ-000005", "date": "2026-09-19", "run_id": "20260924T044623Z-1acc51f5", "ndvi": 0.3567, "ndmi": 0.0721, "water_stress_score": 49.45, "vigor_stress_score": 31.5, "alert": "healthy", "agricultural_probability": 39.69, "ag_class": "possible", "persistence_feature": 0.8333333333333334, "n_clear_dates": 6, "n_dates_above_bare": 5, "assessability": "assessable", "assessable_cell_fraction": 1.0, "valid_area_fraction": 0.9999998957977093, "clear_member_fraction": 1.0, "clear_member_count": 2, "member_count": 2, "observation_role": "current_observation", "biotic_status": "not_flagged", "possible_biotic_stress": false, "refresh_status": "refreshed", "accepted_cells": [{"ndvi": 0.5343, "ndmi": 0.1844, "pixel_count": 2500, "aou_overlap_area": 1.9117288703468138e-05, "product_id": "S2B_MSIL2A_20260919T064619_R020_T39QYA_20260919T104621"}, {"ndvi": 0.1791, "ndmi": -0.0403, "pixel_count": 2500, "aou_overlap_area": 2.1834840896416932e-06, "product_id": "S2B_MSIL2A_20260919T064619_R020_T39QYA_20260919T104621"}], "sources": ["Copernicus Sentinel-2 L2A (ESA) via Microsoft Planetary Computer"], "coverage": {"assessable_cell_fraction": 1.0, "valid_area_fraction": 0.9999998957977093, "valid_area_fraction_basis": "overlap_times_clear_fraction_estimate", "valid_area_fraction_denominator": "aou_target_area", "clear_member_fraction": 1.0}}, "last_good_date": "2026-09-19", "evidence_level": "satellite_only", "product_stamp": "provisional_satellite_analytical_service", "najd_model_validation": "not_validated", "formula_ref": "SCIENCE_LOCKS_v0.4_phase1_2.md\u00a71-2 + SCIENCE_LOCKS_v0.4_aou_temporal_ledger.md + SCIENCE_LOCKS_v0.4_observation_integrity.md + SCIENCE_LOCKS_v0.4_post_integrity_evaluator.md + SCIENCE_LOCKS_v0.4_evaluator_deep_recheck.md + SCIENCE_LOCKS_v0.4_post29_evaluator_residuals.md", "date": "2026-09-19", "join_rule": "max_overlap_area", "temporal_evidence_sufficient": true, "temporal_evidence_ar": null, "temporal_evidence_en": null, "biotic_unknown_reason": null, "release_id": "20260924T044623Z-1acc51f5", "run_id": "20260924T044623Z-1acc51f5"}}, {"type": "Feature", "geometry": {"type": "Polygon", "coordinates": [[[53.83418997456093, 18.034358059942015], [53.834262299885104, 18.03887180416965], [53.83898061719617, 18.038802547284526], [53.84369891328476, 18.038733175550654], [53.84362634794508, 18.03421946832691], [53.83890817186298, 18.034288821543516], [53.83418997456093, 18.034358059942015]]]}, "properties": {"aou_id": "AOU-NJ-000006", "previous_ids": [], "first_seen_date": "2026-08-17", "last_seen_date": "2026-09-19", "active": true, "current_detection": "detected", "refresh_status": "refreshed", "observation_role": "current_observation", "agricultural_probability": 32.91, "ag_class": "possible", "area_ha_est": 50.201, "ndvi": 0.2641, "ndmi": 0.0285, "ndre": null, "ndre_available": false, "ndre_status": "unavailable", "member_count": 3, "geometry_kind": "aou_segment", "aou_not_official_farm": true, "n_clear_dates": 6, "n_dates_above_bare": 6, "persistence_feature": 1.0, "persistence_status": "multi_date", "persistence_estimated_from_window": false, "assessability": "assessable", "clear_member_count": 4, "clear_fraction": 1.0, "assessable_cell_fraction": 1.0, "valid_area_fraction": 0.9999999481955474, "stress_flags_recent_water": [false, false, false], "stress_flags_recent_vigor": [false, false, false], "water_stress_score": 31.55, "vigor_stress_score": 30.09, "alert": "healthy", "possible_biotic_stress": false, "biotic_status": "not_flagged", "biotic_status_last_trusted": "not_flagged", "biotic_last_trusted_date": "2026-09-19", "valid_area_fraction_basis": "overlap_times_clear_fraction_estimate", "valid_area_fraction_denominator": "aou_target_area", "clear_fraction_missing": false, "aou_target_area": 4.2603784718737945e-05, "discovery_status": "established", "discovery_action": null, "match_iou": null, "aggregate_id": "AOU-NJ-000006|2026-09-19|20260924T044623Z-1acc51f5", "aou_date_aggregate": {"aggregate_id": "AOU-NJ-000006|2026-09-19|20260924T044623Z-1acc51f5", "aou_id": "AOU-NJ-000006", "date": "2026-09-19", "run_id": "20260924T044623Z-1acc51f5", "ndvi": 0.2641, "ndmi": 0.0285, "water_stress_score": 31.55, "vigor_stress_score": 30.09, "alert": "healthy", "agricultural_probability": 32.91, "ag_class": "possible", "persistence_feature": 1.0, "n_clear_dates": 6, "n_dates_above_bare": 6, "assessability": "assessable", "assessable_cell_fraction": 1.0, "valid_area_fraction": 0.9999999481955474, "clear_member_fraction": 1.0, "clear_member_count": 4, "member_count": 4, "observation_role": "current_observation", "biotic_status": "not_flagged", "possible_biotic_stress": false, "refresh_status": "refreshed", "accepted_cells": [{"ndvi": 0.3056, "ndmi": 0.0615, "pixel_count": 2500, "aou_overlap_area": 1.9118367217245004e-05, "product_id": "S2B_MSIL2A_20260919T064619_R020_T39QYA_20260919T104621"}, {"ndvi": 0.4586, "ndmi": 0.1504, "pixel_count": 2500, "aou_overlap_area": 1.9118217828559812e-05, "product_id": "S2B_MSIL2A_20260919T064619_R020_T39QYA_20260919T104621"}, {"ndvi": 0.2388, "ndmi": 0.0054, "pixel_count": 2500, "aou_overlap_area": 2.183607264019691e-06, "product_id": "S2B_MSIL2A_20260919T064619_R020_T39QYA_20260919T104621"}, {"ndvi": 0.0535, "ndmi": -0.1034, "pixel_count": 2500, "aou_overlap_area": 2.183590201847689e-06, "product_id": "S2B_MSIL2A_20260919T064619_R020_T39QYA_20260919T104621"}], "sources": ["Copernicus Sentinel-2 L2A (ESA) via Microsoft Planetary Computer"], "coverage": {"assessable_cell_fraction": 1.0, "valid_area_fraction": 0.9999999481955474, "valid_area_fraction_basis": "overlap_times_clear_fraction_estimate", "valid_area_fraction_denominator": "aou_target_area", "clear_member_fraction": 1.0}}, "last_good_date": "2026-09-19", "evidence_level": "satellite_only", "product_stamp": "provisional_satellite_analytical_service", "najd_model_validation": "not_validated", "formula_ref": "SCIENCE_LOCKS_v0.4_phase1_2.md\u00a71-2 + SCIENCE_LOCKS_v0.4_aou_temporal_ledger.md + SCIENCE_LOCKS_v0.4_observation_integrity.md + SCIENCE_LOCKS_v0.4_post_integrity_evaluator.md + SCIENCE_LOCKS_v0.4_evaluator_deep_recheck.md + SCIENCE_LOCKS_v0.4_post29_evaluator_residuals.md", "date": "2026-09-19", "join_rule": "max_overlap_area", "temporal_evidence_sufficient": true, "temporal_evidence_ar": null, "temporal_evidence_en": null, "biotic_unknown_reason": null, "release_id": "20260924T044623Z-1acc51f5", "run_id": "20260924T044623Z-1acc51f5"}}, {"type": "Feature", "geometry": {"type": "Polygon", "coordinates": [[[53.87230159818977, 18.05636889143253], [53.87702022504436, 18.056298640884748], [53.87694673370069, 18.051785073714488], [53.872228226975444, 18.051855305526846], [53.87230159818977, 18.05636889143253]]]}, "properties": {"aou_id": "AOU-NJ-000007", "previous_ids": [], "first_seen_date": "2026-08-17", "last_seen_date": "2026-09-19", "active": true, "current_detection": "detected", "refresh_status": "refreshed", "observation_role": "current_observation", "agricultural_probability": 15.5, "ag_class": "unlikely", "area_ha_est": 25.099, "ndvi": 0.1297, "ndmi": -0.0748, "ndre": null, "ndre_available": false, "ndre_status": "unavailable", "member_count": 2, "geometry_kind": "aou_segment", "aou_not_official_farm": true, "n_clear_dates": 6, "n_dates_above_bare": 4, "persistence_feature": 0.6666666666666666, "persistence_status": "multi_date", "persistence_estimated_from_window": false, "assessability": "assessable", "clear_member_count": 4, "clear_fraction": 1.0, "assessable_cell_fraction": 1.0, "valid_area_fraction": 0.9999999892424526, "stress_flags_recent_water": [false, false, true], "stress_flags_recent_vigor": [false, false, false], "water_stress_score": 76.78, "vigor_stress_score": 53.61, "alert": "water_attention", "possible_biotic_stress": false, "biotic_status": "not_flagged", "biotic_status_last_trusted": "not_flagged", "biotic_last_trusted_date": "2026-09-19", "valid_area_fraction_basis": "overlap_times_clear_fraction_estimate", "valid_area_fraction_denominator": "aou_target_area", "clear_fraction_missing": false, "aou_target_area": 2.1302770255522346e-05, "discovery_status": "established", "discovery_action": null, "match_iou": null, "aggregate_id": "AOU-NJ-000007|2026-09-19|20260924T044623Z-1acc51f5", "aou_date_aggregate": {"aggregate_id": "AOU-NJ-000007|2026-09-19|20260924T044623Z-1acc51f5", "aou_id": "AOU-NJ-000007", "date": "2026-09-19", "run_id": "20260924T044623Z-1acc51f5", "ndvi": 0.1297, "ndmi": -0.0748, "water_stress_score": 76.78, "vigor_stress_score": 53.61, "alert": "water_attention", "agricultural_probability": 15.5, "ag_class": "unlikely", "persistence_feature": 0.6666666666666666, "n_clear_dates": 6, "n_dates_above_bare": 4, "assessability": "assessable", "assessable_cell_fraction": 1.0, "valid_area_fraction": 0.9999999892424526, "clear_member_fraction": 1.0, "clear_member_count": 4, "member_count": 4, "observation_role": "current_observation", "biotic_status": "not_flagged", "possible_biotic_stress": false, "refresh_status": "refreshed", "accepted_cells": [{"ndvi": 0.0618, "ndmi": -0.101, "pixel_count": 2500, "aou_overlap_area": 1.0023888080299897e-12, "product_id": "S2B_MSIL2A_20260919T064619_R020_T39QYA_20260919T104621"}, {"ndvi": 0.1863, "ndmi": -0.0627, "pixel_count": 2500, "aou_overlap_area": 1.911907943720427e-05, "product_id": "S2B_MSIL2A_20260919T064619_R020_T39QYA_20260919T104621"}, {"ndvi": 0.1867, "ndmi": -0.0483, "pixel_count": 2500, "aou_overlap_area": 1.0039479057991952e-12, "product_id": "S2B_MSIL2A_20260919T064619_R020_T39QYA_20260919T104621"}, {"ndvi": 0.0839, "ndmi": -0.0874, "pixel_count": 2500, "aou_overlap_area": 2.183688582815802e-06, "product_id": "S2B_MSIL2A_20260919T064619_R020_T39QYA_20260919T104621"}], "sources": ["Copernicus Sentinel-2 L2A (ESA) via Microsoft Planetary Computer"], "coverage": {"assessable_cell_fraction": 1.0, "valid_area_fraction": 0.9999999892424526, "valid_area_fraction_basis": "overlap_times_clear_fraction_estimate", "valid_area_fraction_denominator": "aou_target_area", "clear_member_fraction": 1.0}}, "last_good_date": "2026-09-19", "evidence_level": "satellite_only", "product_stamp": "provisional_satellite_analytical_service", "najd_model_validation": "not_validated", "formula_ref": "SCIENCE_LOCKS_v0.4_phase1_2.md\u00a71-2 + SCIENCE_LOCKS_v0.4_aou_temporal_ledger.md + SCIENCE_LOCKS_v0.4_observation_integrity.md + SCIENCE_LOCKS_v0.4_post_integrity_evaluator.md + SCIENCE_LOCKS_v0.4_evaluator_deep_recheck.md + SCIENCE_LOCKS_v0.4_post29_evaluator_residuals.md", "date": "2026-09-19", "join_rule": "max_overlap_area", "temporal_evidence_sufficient": true, "temporal_evidence_ar": null, "temporal_evidence_en": null, "biotic_unknown_reason": null, "release_id": "20260924T044623Z-1acc51f5", "run_id": "20260924T044623Z-1acc51f5"}}, {"type": "Feature", "geometry": {"type": "Polygon", "coordinates": [[[53.75059548183187, 18.12135167230624], [53.75531634211395, 18.121284160100853], [53.755245686328365, 18.11677014902098], [53.75052494673285, 18.1168376432755], [53.75059548183187, 18.12135167230624]]]}, "properties": {"aou_id": "AOU-NJ-000008", "previous_ids": [], "first_seen_date": "2026-08-17", "last_seen_date": "2026-09-19", "active": true, "current_detection": "detected", "refresh_status": "refreshed", "observation_role": "current_observation", "agricultural_probability": 22.34, "ag_class": "unlikely", "area_ha_est": 25.104, "ndvi": 0.1912, "ndmi": -0.0605, "ndre": null, "ndre_available": false, "ndre_status": "unavailable", "member_count": 1, "geometry_kind": "aou_segment", "aou_not_official_farm": true, "n_clear_dates": 4, "n_dates_above_bare": 4, "persistence_feature": 1.0, "persistence_status": "multi_date", "persistence_estimated_from_window": false, "assessability": "assessable", "clear_member_count": 2, "clear_fraction": 1.0, "assessable_cell_fraction": 1.0, "valid_area_fraction": 0.9999998994031696, "stress_flags_recent_water": [false, false, false], "stress_flags_recent_vigor": [false, false, false], "water_stress_score": 59.86, "vigor_stress_score": 38.51, "alert": "water_attention", "possible_biotic_stress": false, "biotic_status": "not_flagged", "biotic_status_last_trusted": "not_flagged", "biotic_last_trusted_date": "2026-09-19", "valid_area_fraction_basis": "overlap_times_clear_fraction_estimate", "valid_area_fraction_denominator": "aou_target_area", "clear_fraction_missing": false, "aou_target_area": 2.1314551021188743e-05, "discovery_status": "established", "discovery_action": null, "match_iou": null, "aggregate_id": "AOU-NJ-000008|2026-09-19|20260924T044623Z-1acc51f5", "aou_date_aggregate": {"aggregate_id": "AOU-NJ-000008|2026-09-19|20260924T044623Z-1acc51f5", "aou_id": "AOU-NJ-000008", "date": "2026-09-19", "run_id": "20260924T044623Z-1acc51f5", "ndvi": 0.1912, "ndmi": -0.0605, "water_stress_score": 59.86, "vigor_stress_score": 38.51, "alert": "water_attention", "agricultural_probability": 22.34, "ag_class": "unlikely", "persistence_feature": 1.0, "n_clear_dates": 4, "n_dates_above_bare": 4, "assessability": "assessable", "assessable_cell_fraction": 1.0, "valid_area_fraction": 0.9999998994031696, "clear_member_fraction": 1.0, "clear_member_count": 2, "member_count": 2, "observation_role": "current_observation", "biotic_status": "not_flagged", "possible_biotic_stress": false, "refresh_status": "refreshed", "accepted_cells": [{"ndvi": 0.2234, "ndmi": -0.0819, "pixel_count": 2500, "aou_overlap_area": 1.912965276807019e-05, "product_id": "S2B_MSIL2A_20260919T064619_R020_T39QYA_20260919T104621"}, {"ndvi": 0.159, "ndmi": -0.0391, "pixel_count": 2500, "aou_overlap_area": 2.1848961089422766e-06, "product_id": "S2B_MSIL2A_20260919T064619_R020_T39QYA_20260919T104621"}], "sources": ["Copernicus Sentinel-2 L2A (ESA) via Microsoft Planetary Computer"], "coverage": {"assessable_cell_fraction": 1.0, "valid_area_fraction": 0.9999998994031696, "valid_area_fraction_basis": "overlap_times_clear_fraction_estimate", "valid_area_fraction_denominator": "aou_target_area", "clear_member_fraction": 1.0}}, "last_good_date": "2026-09-19", "evidence_level": "satellite_only", "product_stamp": "provisional_satellite_analytical_service", "najd_model_validation": "not_validated", "formula_ref": "SCIENCE_LOCKS_v0.4_phase1_2.md\u00a71-2 + SCIENCE_LOCKS_v0.4_aou_temporal_ledger.md + SCIENCE_LOCKS_v0.4_observation_integrity.md + SCIENCE_LOCKS_v0.4_post_integrity_evaluator.md + SCIENCE_LOCKS_v0.4_evaluator_deep_recheck.md + SCIENCE_LOCKS_v0.4_post29_evaluator_residuals.md", "date": "2026-09-19", "join_rule": "max_overlap_area", "temporal_evidence_sufficient": true, "temporal_evidence_ar": null, "temporal_evidence_en": null, "biotic_unknown_reason": null, "release_id": "20260924T044623Z-1acc51f5", "run_id": "20260924T044623Z-1acc51f5"}}, {"type": "Feature", "geometry": {"type": "Polygon", "coordinates": [[[53.79823404307884, 18.147754394380154], [53.802955420147825, 18.147685618301168], [53.802883431678026, 18.143171802753592], [53.79816217548228, 18.143240560569513], [53.79823404307884, 18.147754394380154]]]}, "properties": {"aou_id": "AOU-NJ-000009", "previous_ids": [], "first_seen_date": "2026-08-17", "last_seen_date": "2026-09-19", "active": true, "current_detection": "detected", "refresh_status": "refreshed", "observation_role": "current_observation", "agricultural_probability": 44.41, "ag_class": "possible", "area_ha_est": 25.102, "ndvi": 0.3617, "ndmi": 0.0929, "ndre": null, "ndre_available": false, "ndre_status": "unavailable", "member_count": 2, "geometry_kind": "aou_segment", "aou_not_official_farm": true, "n_clear_dates": 4, "n_dates_above_bare": 4, "persistence_feature": 1.0, "persistence_status": "multi_date", "persistence_estimated_from_window": false, "assessability": "assessable", "clear_member_count": 2, "clear_fraction": 1.0, "assessable_cell_fraction": 1.0, "valid_area_fraction": 0.9999998976228828, "stress_flags_recent_water": [false, false, false], "stress_flags_recent_vigor": [false, false, false], "water_stress_score": 17.0, "vigor_stress_score": 17.0, "alert": "healthy", "possible_biotic_stress": false, "biotic_status": "not_flagged", "biotic_status_last_trusted": "not_flagged", "biotic_last_trusted_date": "2026-09-19", "valid_area_fraction_basis": "overlap_times_clear_fraction_estimate", "valid_area_fraction_denominator": "aou_target_area", "clear_fraction_missing": false, "aou_target_area": 2.1316141804322676e-05, "discovery_status": "established", "discovery_action": null, "match_iou": null, "aggregate_id": "AOU-NJ-000009|2026-09-19|20260924T044623Z-1acc51f5", "aou_date_aggregate": {"aggregate_id": "AOU-NJ-000009|2026-09-19|20260924T044623Z-1acc51f5", "aou_id": "AOU-NJ-000009", "date": "2026-09-19", "run_id": "20260924T044623Z-1acc51f5", "ndvi": 0.3617, "ndmi": 0.0929, "water_stress_score": 17.0, "vigor_stress_score": 17.0, "alert": "healthy", "agricultural_probability": 44.41, "ag_class": "possible", "persistence_feature": 1.0, "n_clear_dates": 4, "n_dates_above_bare": 4, "assessability": "assessable", "assessable_cell_fraction": 1.0, "valid_area_fraction": 0.9999998976228828, "clear_member_fraction": 1.0, "clear_member_count": 2, "member_count": 2, "observation_role": "current_observation", "biotic_status": "not_flagged", "possible_biotic_stress": false, "refresh_status": "refreshed", "accepted_cells": [{"ndvi": 0.3596, "ndmi": 0.0777, "pixel_count": 2500, "aou_overlap_area": 1.913108048780037e-05, "product_id": "S2B_MSIL2A_20260919T064619_R020_T39QYA_20260919T104621"}, {"ndvi": 0.3637, "ndmi": 0.108, "pixel_count": 2500, "aou_overlap_area": 2.1850591342371576e-06, "product_id": "S2B_MSIL2A_20260919T064619_R020_T39QYA_20260919T104621"}], "sources": ["Copernicus Sentinel-2 L2A (ESA) via Microsoft Planetary Computer"], "coverage": {"assessable_cell_fraction": 1.0, "valid_area_fraction": 0.9999998976228828, "valid_area_fraction_basis": "overlap_times_clear_fraction_estimate", "valid_area_fraction_denominator": "aou_target_area", "clear_member_fraction": 1.0}}, "last_good_date": "2026-09-19", "evidence_level": "satellite_only", "product_stamp": "provisional_satellite_analytical_service", "najd_model_validation": "not_validated", "formula_ref": "SCIENCE_LOCKS_v0.4_phase1_2.md\u00a71-2 + SCIENCE_LOCKS_v0.4_aou_temporal_ledger.md + SCIENCE_LOCKS_v0.4_observation_integrity.md + SCIENCE_LOCKS_v0.4_post_integrity_evaluator.md + SCIENCE_LOCKS_v0.4_evaluator_deep_recheck.md + SCIENCE_LOCKS_v0.4_post29_evaluator_residuals.md", "date": "2026-09-19", "join_rule": "max_overlap_area", "temporal_evidence_sufficient": true, "temporal_evidence_ar": null, "temporal_evidence_en": null, "biotic_unknown_reason": null, "release_id": "20260924T044623Z-1acc51f5", "run_id": "20260924T044623Z-1acc51f5"}}], "release_id": "20260924T044623Z-1acc51f5", "run_id": "20260924T044623Z-1acc51f5"}